{
  "type": "FeatureCollection",
  "features": [
    {
      "type": "Feature",
      "geometry": {
        "type": "Polygon",
        "coordinates": [
          [
            [23.9308333333333, 68.7705555555556],
            [24.2980555555556, 68.6761111111111],
            [24.4166666666667, 68.4819444444445],
            [24.5, 68.1741666666667],
            [24.3961111111111, 68.115],
            [24.3497222222222, 68.1105555555556],
            [24.2683333333333, 68.065],
            [23.5402777777778, 68.0358333333333],
            [23.2263888888889, 68.2],
            [23.0236111111111, 68.3358333333333],
            [22.7572222222222, 68.4161111111111],
            [23.1608333333333, 68.6291666666667],
            [23.4461111111111, 68.6975],
            [23.6644444444444, 68.7133333333333],
            [23.9308333333333, 68.7705555555556]
          ]
        ]
      },
      "properties": {
        "name": "EFET FIZ UPPER",
        "upper": "FL 95",
        "lower": "3300 FT MSL",
        "airspaceclass": "G",
        "callsign": "ENONTEKIÖ AFIS",
        "lang": "EN, FI",
        "freq": "122.450",
        "activity": "HO",
        "rmk": "RMZ H24",
        "activitytype": "",
        "code": "EFET",
        "type": "FIZ UPPER",
        "upperMeters": 2900,
        "lowerMeters": 1000,
        "sort": 0,
        "notams": [],
        "alwaysActive": true,
        "active": true,
        "becomingActive": false,
        "lat": 68.4031944444444,
        "lng": 23.8593055555556,
        "longcode": "EFET FIZ UPPER",
        "longname": "G 3300 FT MSL - FL 95"
      }
    },
    {
      "type": "Feature",
      "geometry": {
        "type": "Polygon",
        "coordinates": [
          [
            [28.3047222222222, 64.5686111111111],
            [28.6288888888889, 64.4408333333333],
            [28.6922222222222, 64.2775],
            [28.4863888888889, 64.1111111111111],
            [27.7180555555556, 63.9305555555556],
            [27.0930555555556, 63.9991666666667],
            [26.7666666666667, 64.1236111111111],
            [26.6919444444444, 64.2869444444444],
            [26.8883333333333, 64.4563888888889],
            [28.3047222222222, 64.5686111111111]
          ]
        ]
      },
      "properties": {
        "name": "EFKI FIZ UPPER",
        "upper": "FL 95",
        "lower": "2600 FT MSL",
        "airspaceclass": "G",
        "callsign": "KAJAANI AFIS",
        "lang": "EN, FI",
        "freq": "118.100",
        "activity": "HO",
        "rmk": "RMZ H24",
        "activitytype": "",
        "code": "EFKI",
        "type": "FIZ UPPER",
        "upperMeters": 2900,
        "lowerMeters": 800,
        "sort": 0,
        "notams": [],
        "alwaysActive": true,
        "active": true,
        "becomingActive": false,
        "lat": 64.2495833333333,
        "lng": 27.6920833333333,
        "longcode": "EFKI FIZ UPPER",
        "longname": "G 2600 FT MSL - FL 95"
      }
    },
    {
      "type": "Feature",
      "geometry": {
        "type": "Polygon",
        "coordinates": [
          [
            [26.8469444444444, 61.9147222222222],
            [27.9552777777778, 61.7002777777778],
            [28.0891666666667, 61.5983333333333],
            [27.9505555555556, 61.445],
            [27.5911111111111, 61.3372222222222],
            [26.495, 61.555],
            [26.4944444444444, 61.7061111111111],
            [26.8469444444444, 61.9147222222222]
          ]
        ]
      },
      "properties": {
        "name": "EFMI FIZ UPPER",
        "upper": "FL 95",
        "lower": "1700 FT MSL",
        "airspaceclass": "G",
        "callsign": "MIKKELI AFIS",
        "lang": "EN, FI",
        "freq": "123.000",
        "activity": "HO",
        "rmk": "RMZ H24",
        "activitytype": "",
        "code": "EFMI",
        "type": "FIZ UPPER",
        "upperMeters": 2900,
        "lowerMeters": 500,
        "sort": 0,
        "notams": [],
        "alwaysActive": true,
        "active": true,
        "becomingActive": false,
        "lat": 61.6193232101222,
        "lng": 27.2675235152564,
        "longcode": "EFMI FIZ UPPER",
        "longname": "G 1700 FT MSL - FL 95"
      }
    },
    {
      "type": "Feature",
      "geometry": {
        "type": "Polygon",
        "coordinates": [
          [
            [28.7155555555556, 62.3247222222222],
            [29.7897222222222, 61.9636111111111],
            [29.7497222222222, 61.77],
            [29.5411111111111, 61.635],
            [29.1655555555556, 61.5588888888889],
            [28.1052777777778, 61.9197222222222],
            [28.1330555555556, 62.1122222222222],
            [28.3355555555556, 62.2472222222222],
            [28.7155555555556, 62.3247222222222]
          ]
        ]
      },
      "properties": {
        "name": "EFSA FIZ UPPER",
        "url": "",
        "upper": "FL 95",
        "lower": "1900 FT MSL",
        "airspaceclass": "G",
        "callsign": "SAVONLINNA AFIS",
        "lang": "FI, EN",
        "freq": "118.800 119.700 121.500 (EMERG)",
        "activity": "HO",
        "activitytype": "",
        "rmk": "RMZ H24",
        "code": "EFSA",
        "type": "FIZ UPPER",
        "upperMeters": 2900,
        "lowerMeters": 600,
        "sort": 0,
        "notams": [],
        "alwaysActive": true,
        "active": true,
        "becomingActive": false,
        "lat": 61.9420749244228,
        "lng": 28.9437526894798,
        "longcode": "EFSA FIZ UPPER",
        "longname": "G 1900 FT MSL - FL 95"
      }
    },
    {
      "type": "Feature",
      "geometry": {
        "type": "Polygon",
        "coordinates": [
          [
            [22.7325, 63.0727777777778],
            [23.6658333333333, 62.6280555555556],
            [23.5511111111111, 62.4647222222222],
            [23.2877777777778, 62.3494444444444],
            [23.05, 62.3205555555556],
            [22.265, 62.7602777777778],
            [22.3880555555556, 63.0308333333333],
            [22.7325, 63.0727777777778]
          ]
        ]
      },
      "properties": {
        "name": "EFSI FIZ UPPER",
        "upper": "FL 95",
        "lower": "2000 FT MSL",
        "airspaceclass": "G",
        "callsign": "SEINÄJOKI AFIS",
        "lang": "EN, FI",
        "freq": "123.600",
        "activity": "HO",
        "rmk": "RMZ H24",
        "activitytype": "",
        "code": "EFSI",
        "type": "FIZ UPPER",
        "upperMeters": 2900,
        "lowerMeters": 600,
        "sort": 0,
        "notams": [],
        "alwaysActive": true,
        "active": true,
        "becomingActive": false,
        "lat": 62.6953203766824,
        "lng": 22.9381718175108,
        "longcode": "EFSI FIZ UPPER",
        "longname": "G 2000 FT MSL - FL 95"
      }
    },
    {
      "type": "Feature",
      "geometry": {
        "type": "Polygon",
        "coordinates": [
          [
            [23.4536111111111, 68.5969444444445],
            [24.0102777777778, 68.4538888888889],
            [23.38, 68.12],
            [23.2263888888889, 68.2],
            [23.0236111111111, 68.3358333333333],
            [22.9863888888889, 68.3472222222222],
            [23.4536111111111, 68.5969444444445]
          ]
        ]
      },
      "properties": {
        "name": "EFET FIZ LOWER",
        "upper": "3300 FT MSL",
        "lower": "SFC",
        "airspaceclass": "G",
        "callsign": "ENONTEKIÖ AFIS",
        "lang": "FI, EN",
        "freq": "122.450 119.700 121.500 (EMERG)",
        "activity": "HO",
        "rmk": "RMZ H24",
        "activitytype": "",
        "code": "EFET",
        "type": "FIZ LOWER",
        "upperMeters": 1000,
        "lowerMeters": 0,
        "sort": 0,
        "notams": [],
        "alwaysActive": true,
        "active": true,
        "becomingActive": false,
        "lat": 68.3745253085078,
        "lng": 23.4697016569576,
        "longcode": "EFET FIZ LOWER",
        "longname": "G SFC - 3300 FT MSL"
      }
    },
    {
      "type": "Feature",
      "geometry": {
        "type": "Polygon",
        "coordinates": [
          [
            [28.0894444444444, 64.4430555555556],
            [28.1891666666667, 64.1977777777778],
            [27.2997222222222, 64.1269444444444],
            [27.1925, 64.3716666666667],
            [28.0894444444444, 64.4430555555556]
          ]
        ]
      },
      "properties": {
        "name": "EFKI FIZ LOWER",
        "upper": "2600 FT MSL",
        "lower": "SFC",
        "airspaceclass": "G",
        "callsign": "KAJAANI AFIS",
        "lang": "FI, EN",
        "freq": "118.100 119.700 121.500 (EMERG)",
        "activity": "HO",
        "rmk": "RMZ H24",
        "activitytype": "",
        "code": "EFKI",
        "type": "FIZ LOWER",
        "upperMeters": 800,
        "lowerMeters": 0,
        "sort": 0,
        "notams": [],
        "alwaysActive": true,
        "active": true,
        "becomingActive": false,
        "lat": 64.2850311859101,
        "lng": 27.692623880812,
        "longcode": "EFKI FIZ LOWER",
        "longname": "G SFC - 2600 FT MSL"
      }
    },
    {
      "type": "Feature",
      "geometry": {
        "type": "Polygon",
        "coordinates": [
          [
            [26.9638888888889, 61.8680555555556],
            [27.6716666666667, 61.7280555555556],
            [27.4675, 61.4986111111111],
            [26.7652777777778, 61.6375],
            [26.9638888888889, 61.8680555555556]
          ]
        ]
      },
      "properties": {
        "name": "EFMI FIZ LOWER",
        "upper": "1700 FT MSL",
        "lower": "SFC",
        "airspaceclass": "G",
        "callsign": "MIKKELI AFIS",
        "lang": "FI, EN",
        "freq": "123.000 119.700 121.500 (EMERG)",
        "activity": "HO",
        "rmk": "RMZ H24",
        "activitytype": "",
        "code": "EFMI",
        "type": "FIZ LOWER",
        "upperMeters": 500,
        "lowerMeters": 0,
        "sort": 0,
        "notams": [],
        "alwaysActive": true,
        "active": true,
        "becomingActive": false,
        "lat": 61.6832073697375,
        "lng": 27.2172131312683,
        "longcode": "EFMI FIZ LOWER",
        "longname": "G SFC - 1700 FT MSL"
      }
    },
    {
      "type": "Feature",
      "geometry": {
        "type": "Polygon",
        "coordinates": [
          [
            [28.7811111111111, 62.1513888888889],
            [29.4036111111111, 61.9405555555556],
            [29.0944444444444, 61.7388888888889],
            [28.4730555555556, 61.9483333333333],
            [28.7811111111111, 62.1513888888889]
          ]
        ]
      },
      "properties": {
        "name": "EFSA FIZ LOWER",
        "upper": "1900 FT MSL",
        "lower": "SFC",
        "airspaceclass": "G",
        "callsign": "SAVONLINNA AFIS",
        "lang": "FI, EN",
        "freq": "118.800 119.700 121.500 (EMERG)",
        "activity": "HO",
        "rmk": "RMZ H24",
        "activitytype": "",
        "code": "EFSA",
        "type": "FIZ LOWER",
        "upperMeters": 600,
        "lowerMeters": 0,
        "sort": 0,
        "notams": [],
        "alwaysActive": true,
        "active": true,
        "becomingActive": false,
        "lat": 61.9449073287342,
        "lng": 28.9379723755086,
        "longcode": "EFSA FIZ LOWER",
        "longname": "G SFC - 1900 FT MSL"
      }
    },
    {
      "type": "Feature",
      "geometry": {
        "type": "Polygon",
        "coordinates": [
          [
            [22.7541666666667, 62.9091666666667],
            [23.2997222222222, 62.6469444444444],
            [22.9086111111111, 62.4752777777778],
            [22.3627777777778, 62.7361111111111],
            [22.7541666666667, 62.9091666666667]
          ]
        ]
      },
      "properties": {
        "name": "EFSI FIZ LOWER",
        "upper": "2000 FT MSL",
        "lower": "SFC",
        "airspaceclass": "G",
        "callsign": "SEINÄJOKI AFIS",
        "lang": "FI, EN",
        "freq": "123.600 119.700 121.500 (EMERG)",
        "activity": "HO",
        "rmk": "RMZ H24",
        "activitytype": "",
        "code": "EFSI",
        "type": "FIZ LOWER",
        "upperMeters": 600,
        "lowerMeters": 0,
        "sort": 0,
        "notams": [],
        "alwaysActive": true,
        "active": true,
        "becomingActive": false,
        "lat": 62.6920034175851,
        "lng": 22.8312093872001,
        "longcode": "EFSI FIZ LOWER",
        "longname": "G SFC - 2000 FT MSL"
      }
    },
    {
      "type": "Feature",
      "geometry": {
        "type": "Polygon",
        "coordinates": [
          [
            [25.44, 60.9544444444445],
            [25.5433333333333, 60.9147222222222],
            [25.9716666666667, 60.7477777777778],
            [26.0044444444444, 60.7225],
            [26.3036111111111, 60.5880555555556],
            [26.2336111111111, 60.5436111111111],
            [26.7272222222222, 60.1497222222222],
            [26.55, 60.1333333333333],
            [26.1330555555556, 60.4522222222222],
            [25.8416666666667, 60.6922222222222],
            [25.4858333333333, 60.8308333333333],
            [24.7822222222222, 60.8202777777778],
            [25.0866666666667, 60.9497222222222],
            [25.44, 60.9544444444445]
          ]
        ]
      },
      "properties": {
        "name": "EFHK CTA EAST",
        "url": "",
        "upper": "FL 95",
        "lower": "FL 65",
        "airspaceclass": "C",
        "callsign": "HELSINKI RADAR",
        "lang": "EN",
        "freq": "119.100 129.850",
        "activity": "H24",
        "activitytype": "",
        "rmk": "TMZ H24",
        "code": "EFHK",
        "type": "CTA",
        "upperMeters": 2900,
        "lowerMeters": 2000,
        "sort": 1,
        "notams": [],
        "alwaysActive": true,
        "active": true,
        "becomingActive": false,
        "lat": 60.5438888888889,
        "lng": 26.0138888888889,
        "longcode": "EFHK CTA EAST",
        "longname": "C FL 65 - FL 95"
      }
    },
    {
      "type": "Feature",
      "geometry": {
        "type": "Polygon",
        "coordinates": [
          [
            [24.0633333333333, 60.6016666666667],
            [24.2705555555556, 60.6],
            [24.0436111111111, 60.4477777777778],
            [23.8244444444444, 59.9130555555556],
            [23.9919444444444, 59.7],
            [23.7525, 59.6480555555556],
            [23.5380555555556, 59.9177777777778],
            [23.5980555555556, 59.9522222222222],
            [23.6927777777778, 60.0061111111111],
            [23.7938888888889, 60.2569444444444],
            [23.8480555555556, 60.3894444444444],
            [23.8861111111111, 60.4822222222222],
            [24.0633333333333, 60.6016666666667]
          ]
        ]
      },
      "properties": {
        "name": "EFHK CTA WEST",
        "upper": "FL 95",
        "lower": "FL 65",
        "airspaceclass": "C",
        "callsign": "HELSINKI RADAR",
        "lang": "EN",
        "freq": "119.100 129.850",
        "activity": "H24",
        "rmk": "TMZ H24",
        "activitytype": "",
        "code": "EFHK",
        "type": "CTA",
        "upperMeters": 2900,
        "lowerMeters": 2000,
        "sort": 1,
        "notams": [],
        "alwaysActive": true,
        "active": true,
        "becomingActive": false,
        "lat": 60.0959612191026,
        "lng": 23.8494584656303,
        "longcode": "EFHK CTA WEST",
        "longname": "C FL 65 - FL 95"
      }
    },
    {
      "type": "Feature",
      "geometry": {
        "type": "Polygon",
        "coordinates": [
          [
            [25.6680555555556, 63.3233333333333],
            [27.0447222222222, 63.1075],
            [27.16, 62.5330555555556],
            [26.5763888888889, 62.1205555555556],
            [26.5608333333333, 62.4102777777778],
            [25.6641666666667, 62.8094444444444],
            [25.1780555555556, 62.8008333333333],
            [24.8352777777778, 62.7141666666667],
            [24.8169444444444, 62.1433333333333],
            [24.0891666666667, 62.0819444444444],
            [23.5511111111111, 62.4647222222222],
            [23.6658333333333, 62.6280555555556],
            [24.0802777777778, 63.0016666666667],
            [24.6330555555556, 63.2172222222222],
            [25.08, 63.2994444444444],
            [25.6680555555556, 63.3233333333333]
          ]
        ]
      },
      "properties": {
        "name": "EFJY CTA",
        "upper": "FL 95",
        "lower": "2000 FT MSL",
        "airspaceclass": "D",
        "callsign": "JYVÄSKYLÄN TUTKA, JYVÄSKYLÄ RADAR",
        "lang": "EN, FI",
        "freq": "127.000",
        "activity": "MON-THU 0700-1400 UTC (0600-1300 UTC) AND FRI 0700-1200 UTC (0600-1100 UTC) EXC public HOL.",
        "rmk": "RMZ H24 TMZ HO Exceptional activity time published by NOTAM",
        "activitytype": "",
        "code": "EFJY",
        "type": "CTA",
        "upperMeters": 2900,
        "lowerMeters": 600,
        "sort": 1,
        "notams": [],
        "alwaysActive": true,
        "active": true,
        "becomingActive": false,
        "lat": 62.7026388888889,
        "lng": 26.6545833333333,
        "longcode": "EFJY CTA",
        "longname": "D 2000 FT MSL - FL 95"
      }
    },
    {
      "type": "Feature",
      "geometry": {
        "type": "Polygon",
        "coordinates": [
          [
            [24.2247222222222, 65.3311111111111],
            [24.4147222222222, 65.3047222222222],
            [24.1922222222222, 65.1119444444444],
            [24.2202777777778, 64.9077777777778],
            [24.5230555555556, 64.6669444444445],
            [24.805, 64.5361111111111],
            [25.0233333333333, 64.4275],
            [25.6766666666667, 64.4533333333333],
            [25.6761111111111, 64.37],
            [24.9430555555556, 64.3405555555556],
            [24.3641666666667, 64.6183333333333],
            [24.0275, 64.8844444444445],
            [23.9922222222222, 65.1286111111111],
            [24.2247222222222, 65.3311111111111]
          ]
        ]
      },
      "properties": {
        "name": "EFOU CTA",
        "url": "",
        "upper": "FL 95",
        "lower": "FL 65",
        "airspaceclass": "D",
        "callsign": "OULUN TUTKA, OULU RADAR",
        "lang": "",
        "freq": "118.150",
        "activity": "HO EFOU TWR",
        "activitytype": "",
        "rmk": "RMZ H24",
        "code": "EFOU",
        "type": "CTA",
        "upperMeters": 2900,
        "lowerMeters": 2000,
        "sort": 1,
        "notams": [],
        "alwaysActive": true,
        "active": true,
        "becomingActive": false,
        "lat": 64.7358340682372,
        "lng": 24.5746848861449,
        "longcode": "EFOU CTA",
        "longname": "D FL 65 - FL 95"
      }
    },
    {
      "type": "Feature",
      "geometry": {
        "type": "Polygon",
        "coordinates": [
          [
            [21.3508333333333, 60.5544444444444],
            [21.3858333333333, 60.3886111111111],
            [21.8997222222222, 60.1119444444445],
            [22.9575, 60.2316666666667],
            [23.1913888888889, 60.4683333333333],
            [23.1655555555556, 60.6344444444444],
            [23.3486111111111, 60.5452777777778],
            [23.3625, 60.4519444444445],
            [23.0719444444444, 60.1588888888889],
            [21.8430555555556, 60.02],
            [21.225, 60.3522222222222],
            [21.2055555555556, 60.4427777777778],
            [21.3508333333333, 60.5544444444444]
          ]
        ]
      },
      "properties": {
        "name": "EFTU CTA",
        "upper": "FL 95",
        "lower": "FL 65",
        "airspaceclass": "D",
        "callsign": "TURUN TUTKA, TURKU RADAR",
        "lang": "EN, FI",
        "freq": "120.475",
        "activity": "H24",
        "rmk": "",
        "activitytype": "",
        "code": "EFTU",
        "type": "CTA",
        "upperMeters": 2900,
        "lowerMeters": 2000,
        "sort": 1,
        "notams": [],
        "alwaysActive": true,
        "active": true,
        "becomingActive": false,
        "lat": 60.3272222222222,
        "lng": 21.5127777777778,
        "longcode": "EFTU CTA",
        "longname": "D FL 65 - FL 95"
      }
    },
    {
      "type": "Feature",
      "geometry": {
        "type": "Polygon",
        "coordinates": [
          [
            [21.0027777777778, 63.27],
            [20.9830555555556, 62.9411111111111],
            [21.3980555555556, 62.6761111111111],
            [21.8652777777778, 62.6027777777778],
            [22.2158333333333, 62.6508333333333],
            [22.265, 62.7602777777778],
            [22.4127777777778, 62.6788888888889],
            [22.3705555555556, 62.5852777777778],
            [21.8613888888889, 62.5155555555556],
            [21.285, 62.6061111111111],
            [20.7994444444444, 62.9152777777778],
            [20.8119444444444, 63.1522222222222],
            [21.0027777777778, 63.27]
          ]
        ]
      },
      "properties": {
        "name": "EFVA CTA",
        "upper": "FL 95",
        "lower": "FL 65",
        "airspaceclass": "D",
        "callsign": "VAASAN TORNI, VAASA TOWER",
        "lang": "EN, FI",
        "freq": "120.950",
        "activity": "HO EFVA TWR",
        "rmk": "RMZ H24",
        "activitytype": "",
        "code": "EFVA",
        "type": "CTA",
        "upperMeters": 2900,
        "lowerMeters": 2000,
        "sort": 1,
        "notams": [],
        "alwaysActive": true,
        "active": true,
        "becomingActive": false,
        "lat": 62.8927777777778,
        "lng": 21.1766666666667,
        "longcode": "EFVA CTA",
        "longname": "D FL 65 - FL 95"
      }
    },
    {
      "type": "Feature",
      "geometry": {
        "type": "Polygon",
        "coordinates": [
          [
            [28.4283333333333, 68.6591666666667],
            [28.1188888888889, 68.4425],
            [27.2858333333333, 68.1541666666667],
            [26.82, 68.1497222222222],
            [26.6544444444444, 68.2308333333333],
            [27.1944444444444, 68.2363888888889],
            [28.4283333333333, 68.6591666666667]
          ]
        ]
      },
      "properties": {
        "name": "EFIV CTA",
        "url": "",
        "upper": "FL 95",
        "lower": "FL 65",
        "airspaceclass": "D",
        "callsign": "IVALO TOWER",
        "lang": "FI, EN",
        "freq": "118.000",
        "activity": "",
        "activitytype": "",
        "rmk": "RMZ outside ATS OPR HR",
        "code": "EFIV",
        "type": "CTA",
        "upperMeters": 2900,
        "lowerMeters": 2000,
        "sort": 1,
        "notams": [],
        "alwaysActive": true,
        "active": true,
        "becomingActive": false,
        "lat": 68.3284528223595,
        "lng": 27.5535675933772,
        "longcode": "EFIV CTA",
        "longname": "D FL 65 - FL 95"
      }
    },
    {
      "type": "Feature",
      "geometry": {
        "type": "Polygon",
        "coordinates": [
          [
            [25.1158333333333, 62.1672222222222],
            [25.7822222222222, 61.8644444444444],
            [25.505, 61.6252777777778],
            [24.5977777777778, 61.6],
            [24.1319444444444, 61.7186111111111],
            [24.0494444444444, 61.9486111111111],
            [24.0891666666667, 62.0819444444444],
            [25.1158333333333, 62.1672222222222]
          ]
        ]
      },
      "properties": {
        "name": "EFHA TMA",
        "upper": "FL 95",
        "lower": "2000 FT MSL",
        "airspaceclass": "D",
        "callsign": "HALLIN TUTKA, HALLI RADAR",
        "lang": "EN, FI",
        "freq": "124.550",
        "activity": "HO",
        "rmk": "RMZ H24",
        "activitytype": "",
        "code": "EFHA",
        "type": "TMA",
        "upperMeters": 2900,
        "lowerMeters": 600,
        "sort": 2,
        "notams": [],
        "alwaysActive": true,
        "active": true,
        "becomingActive": false,
        "lat": 61.8836111111111,
        "lng": 24.9158333333333,
        "longcode": "EFHA TMA",
        "longname": "D 2000 FT MSL - FL 95"
      }
    },
    {
      "type": "Feature",
      "geometry": {
        "type": "Polygon",
        "coordinates": [
          [
            [24.7822222222222, 60.8202777777778],
            [25.4858333333333, 60.8308333333333],
            [25.8416666666667, 60.6922222222222],
            [26.1330555555556, 60.4522222222222],
            [26.55, 60.1333333333333],
            [25.8666666666667, 59.8833333333333],
            [25.3333333333333, 59.9083333333333],
            [24.9969444444444, 59.8908333333333],
            [24.85, 59.8833333333333],
            [23.9919444444444, 59.7],
            [23.8244444444444, 59.9130555555556],
            [24.0436111111111, 60.4477777777778],
            [24.4855555555556, 60.7425],
            [24.7822222222222, 60.8202777777778]
          ]
        ]
      },
      "properties": {
        "name": "EFHK TMA UPPER",
        "upper": "FL 285",
        "lower": "2500 FT MSL",
        "airspaceclass": "C",
        "callsign": "HELSINKI RADAR",
        "lang": "EN",
        "freq": "119.100 129.850",
        "activity": "H24",
        "rmk": "TMZ H24",
        "activitytype": "",
        "code": "EFHK",
        "type": "TMA",
        "upperMeters": 8700,
        "lowerMeters": 750,
        "sort": 2,
        "notams": [],
        "alwaysActive": true,
        "active": true,
        "becomingActive": false,
        "lat": 60.2805747354248,
        "lng": 25.0692858963498,
        "longcode": "EFHK TMA UPPER",
        "longname": "C 2500 FT MSL - FL 285"
      }
    },
    {
      "type": "Feature",
      "geometry": {
        "type": "Polygon",
        "coordinates": [
          [
            [25.3222222222222, 60.7005555555556],
            [25.7219444444444, 60.4819444444444],
            [25.4511111111111, 60.1661111111111],
            [25.0294444444444, 60.055],
            [24.5119444444444, 59.9716666666667],
            [24.0986111111111, 60.1852777777778],
            [24.3852777777778, 60.3177777777778],
            [24.3897222222222, 60.4366666666667],
            [24.6433333333333, 60.5577777777778],
            [25.3222222222222, 60.7005555555556]
          ]
        ]
      },
      "properties": {
        "name": "EFHK TMA LOWER",
        "upper": "2500 FT MSL",
        "lower": "1300 FT MSL",
        "airspaceclass": "C",
        "callsign": "HELSINKI RADAR",
        "lang": "EN",
        "freq": "119.100 129.850",
        "activity": "H24",
        "rmk": "TMZ H24",
        "activitytype": "",
        "code": "EFHK",
        "type": "TMA",
        "upperMeters": 750,
        "lowerMeters": 400,
        "sort": 2,
        "notams": [],
        "alwaysActive": true,
        "active": true,
        "becomingActive": false,
        "lat": 60.3281686377017,
        "lng": 24.9457032623684,
        "longcode": "EFHK TMA LOWER",
        "longname": "C 1300 FT MSL - 2500 FT MSL"
      }
    },
    {
      "type": "Feature",
      "geometry": {
        "type": "Polygon",
        "coordinates": [
          [
            [28.1086111111111, 68.9783333333333],
            [28.4822222222222, 68.8297222222222],
            [28.4283333333333, 68.6591666666667],
            [28.0591666666667, 68.5352777777778],
            [27.8055555555556, 68.4488888888889],
            [27.1944444444444, 68.2363888888889],
            [26.6544444444444, 68.2308333333333],
            [26.3394444444444, 68.3522222222222],
            [26.3797222222222, 68.5519444444444],
            [26.9991666666667, 68.7647222222222],
            [27.6308333333333, 68.975],
            [28.1086111111111, 68.9783333333333]
          ]
        ]
      },
      "properties": {
        "name": "EFIV TMA",
        "url": "",
        "upper": "FL 95",
        "lower": "3000 FT MSL",
        "airspaceclass": "D",
        "callsign": "IVALO TOWER",
        "lang": "FI, EN",
        "freq": "118.000",
        "activity": "",
        "activitytype": "",
        "rmk": "RMZ outside ATS OPR HR, TMZ HO",
        "code": "EFIV",
        "type": "TMA",
        "upperMeters": 2900,
        "lowerMeters": 900,
        "sort": 2,
        "notams": [],
        "alwaysActive": true,
        "active": true,
        "becomingActive": false,
        "lat": 68.6032711206683,
        "lng": 27.3978160535064,
        "longcode": "EFIV TMA",
        "longname": "D 3000 FT MSL - FL 95"
      }
    },
    {
      "type": "Feature",
      "geometry": {
        "type": "Polygon",
        "coordinates": [
          [
            [29.1577777777778, 62.985],
            [30.4325, 62.7694444444444],
            [30.5511111111111, 62.5877777777778],
            [30.4211111111111, 62.4319444444444],
            [30.0719444444444, 62.3333333333333],
            [29.0866666666667, 62.4044444444444],
            [28.6361111111111, 62.5491666666667],
            [28.6861111111111, 62.7283333333333],
            [28.8069444444444, 62.8841666666667],
            [29.1577777777778, 62.985]
          ]
        ]
      },
      "properties": {
        "name": "EFJO TMA",
        "upper": "FL 95",
        "lower": "2000 FT MSL",
        "airspaceclass": "D",
        "callsign": "JOENSUUN TORNI, JOENSUU TOWER",
        "lang": "EN, FI",
        "freq": "120.900",
        "activity": "HO",
        "rmk": "RMZ H24",
        "activitytype": "",
        "code": "EFJO",
        "type": "TMA",
        "upperMeters": 2900,
        "lowerMeters": 600,
        "sort": 2,
        "notams": [],
        "alwaysActive": true,
        "active": true,
        "becomingActive": false,
        "lat": 62.640078958266,
        "lng": 29.5706827386826,
        "longcode": "EFJO TMA",
        "longname": "D 2000 FT MSL - FL 95"
      }
    },
    {
      "type": "Feature",
      "geometry": {
        "type": "Polygon",
        "coordinates": [
          [
            [25.6641666666667, 62.8094444444444],
            [25.9952777777778, 62.6638888888889],
            [26.3094444444444, 62.5238888888889],
            [26.5608333333333, 62.4102777777778],
            [26.5763888888889, 62.1205555555556],
            [25.7822222222222, 61.8644444444444],
            [25.2702777777778, 62.0977777777778],
            [25.1158333333333, 62.1672222222222],
            [24.8169444444444, 62.1433333333333],
            [24.8247222222222, 62.4341666666667],
            [24.83, 62.5766666666667],
            [24.8352777777778, 62.7141666666667],
            [25.1780555555556, 62.8008333333333],
            [25.6641666666667, 62.8094444444444]
          ]
        ]
      },
      "properties": {
        "name": "EFJY TMA",
        "upper": "FL 95",
        "lower": "2000 FT MSL",
        "airspaceclass": "D",
        "callsign": "JYVÄSKYLÄN TUTKA, JYVÄSKYLÄ RADAR",
        "lang": "EN, FI",
        "freq": "127.000",
        "activity": "HO",
        "rmk": "RMZ H24, TMZ HO",
        "activitytype": "",
        "code": "EFJY",
        "type": "TMA",
        "upperMeters": 2900,
        "lowerMeters": 600,
        "sort": 2,
        "notams": [],
        "alwaysActive": true,
        "active": true,
        "becomingActive": false,
        "lat": 62.3651741444368,
        "lng": 25.6522811960094,
        "longcode": "EFJY TMA",
        "longname": "D 2000 FT MSL - FL 95"
      }
    },
    {
      "type": "Feature",
      "geometry": {
        "type": "Polygon",
        "coordinates": [
          [
            [24.5144444444444, 66.1988888888889],
            [24.7008333333333, 66.1888888888889],
            [24.9155555555556, 66.1772222222222],
            [25.2833333333333, 66.0555555555556],
            [25.2266666666667, 65.5955555555556],
            [25.1836111111111, 65.4058333333333],
            [24.4147222222222, 65.3047222222222],
            [23.9097222222222, 65.3744444444444],
            [24.14, 65.53],
            [24.1627777777778, 65.8497222222222],
            [24.2805555555556, 66.1569444444445],
            [24.5144444444444, 66.1988888888889]
          ]
        ]
      },
      "properties": {
        "name": "EFKE TMA",
        "upper": "FL 95",
        "lower": "2000 FT MSL",
        "airspaceclass": "D",
        "callsign": "KEMIN TORNI, KEMI TOWER",
        "lang": "EN, FI",
        "freq": "119.400",
        "activity": "HO",
        "rmk": "RMZ H24",
        "activitytype": "",
        "code": "EFKE",
        "type": "TMA",
        "upperMeters": 2900,
        "lowerMeters": 600,
        "sort": 2,
        "notams": [],
        "alwaysActive": true,
        "active": true,
        "becomingActive": false,
        "lat": 65.7518055555556,
        "lng": 24.5965277777778,
        "longcode": "EFKE TMA",
        "longname": "D 2000 FT MSL - FL 95"
      }
    },
    {
      "type": "Feature",
      "geometry": {
        "type": "Polygon",
        "coordinates": [
          [
            [24.7738888888889, 68.1505555555556],
            [25.2436111111111, 68.0566666666667],
            [25.6361111111111, 67.4544444444445],
            [25.3344444444444, 67.2905555555556],
            [24.9097222222222, 67.2508333333333],
            [24.4475, 67.3430555555556],
            [23.9805555555556, 67.5919444444444],
            [24.0558333333333, 67.945],
            [24.3497222222222, 68.1105555555556],
            [24.7738888888889, 68.1505555555556]
          ]
        ]
      },
      "properties": {
        "name": "EFKT TMA",
        "upper": "FL 95",
        "lower": "3300 FT MSL",
        "airspaceclass": "D",
        "callsign": "KITTILÄN TORNI, KITTILÄ TOWER",
        "lang": "EN, FI",
        "freq": "118.950",
        "activity": "HO",
        "rmk": "RMZ H24, TMZ HO",
        "activitytype": "",
        "code": "EFKT",
        "type": "TMA",
        "upperMeters": 2900,
        "lowerMeters": 1000,
        "sort": 2,
        "notams": [],
        "alwaysActive": true,
        "active": true,
        "becomingActive": false,
        "lat": 67.7006944444445,
        "lng": 24.8083333333333,
        "longcode": "EFKT TMA",
        "longname": "D 3300 FT MSL - FL 95"
      }
    },
    {
      "type": "Feature",
      "geometry": {
        "type": "Polygon",
        "coordinates": [
          [
            [23.4630555555556, 64.0002777777778],
            [23.8616666666667, 63.9733333333333],
            [23.5969444444444, 63.3488888888889],
            [23.1458333333333, 63.2694444444444],
            [22.7777777777778, 63.3],
            [22.4191666666667, 63.4469444444444],
            [22.6230555555556, 63.9313888888889],
            [22.8463888888889, 63.9502777777778],
            [23.4630555555556, 64.0002777777778]
          ]
        ]
      },
      "properties": {
        "name": "EFKK TMA",
        "upper": "FL 95",
        "lower": "1900 FT MSL",
        "airspaceclass": "D",
        "callsign": "KRUUNUN TORNI, KRUUNU TOWER",
        "lang": "EN, FI",
        "freq": "120.100",
        "activity": "HO",
        "rmk": "RMZ H24",
        "activitytype": "",
        "code": "EFKK",
        "type": "TMA",
        "upperMeters": 2900,
        "lowerMeters": 600,
        "sort": 2,
        "notams": [],
        "alwaysActive": true,
        "active": true,
        "becomingActive": false,
        "lat": 63.6348611111111,
        "lng": 23.1404166666667,
        "longcode": "EFKK TMA",
        "longname": "D 1900 FT MSL - FL 95"
      }
    },
    {
      "type": "Feature",
      "geometry": {
        "type": "Polygon",
        "coordinates": [
          [
            [27.6111111111111, 63.4172222222222],
            [27.9161111111111, 63.3972222222222],
            [28.1919444444444, 63.3091666666667],
            [28.4997222222222, 62.9775],
            [29.1577777777778, 62.985],
            [28.8069444444444, 62.8841666666667],
            [28.6861111111111, 62.7283333333333],
            [28.6361111111111, 62.5491666666667],
            [27.8722222222222, 62.5683333333333],
            [27.3086111111111, 62.5527777777778],
            [27.16, 62.5330555555556],
            [27.0266666666667, 63.1958333333333],
            [27.2747222222222, 63.3527777777778],
            [27.6111111111111, 63.4172222222222]
          ]
        ]
      },
      "properties": {
        "name": "EFKU TMA",
        "upper": "FL 95",
        "lower": "2000 FT MSL",
        "airspaceclass": "C",
        "callsign": "KUOPION TUTKA, KUOPIO RADAR",
        "lang": "EN, FI",
        "freq": "130.600",
        "activity": "H24",
        "rmk": "",
        "activitytype": "",
        "code": "EFKU",
        "type": "TMA",
        "upperMeters": 2900,
        "lowerMeters": 600,
        "sort": 2,
        "notams": [],
        "alwaysActive": true,
        "active": true,
        "becomingActive": false,
        "lat": 62.9751388888889,
        "lng": 27.46875,
        "longcode": "EFKU TMA",
        "longname": "C 2000 FT MSL - FL 95"
      }
    },
    {
      "type": "Feature",
      "geometry": {
        "type": "Polygon",
        "coordinates": [
          [
            [29.0536111111111, 66.3663888888889],
            [29.9061111111111, 66.0402777777778],
            [30.0455555555556, 65.7386111111111],
            [29.4144444444444, 65.6055555555556],
            [28.6502777777778, 65.7516666666667],
            [28.2944444444444, 66.0219444444444],
            [28.2783333333333, 66.2227777777778],
            [28.5480555555556, 66.3458333333333],
            [29.0536111111111, 66.3663888888889]
          ]
        ]
      },
      "properties": {
        "name": "EFKS TMA",
        "upper": "FL 95",
        "lower": "2500 FT MSL",
        "airspaceclass": "D",
        "callsign": "KUUSAMON TORNI, KUUSAMO TOWER",
        "lang": "EN, FI",
        "freq": "118.650",
        "activity": "HO",
        "rmk": "RMZ H24, TMZ HO",
        "activitytype": "",
        "code": "EFKS",
        "type": "TMA",
        "upperMeters": 2900,
        "lowerMeters": 750,
        "sort": 2,
        "notams": [],
        "alwaysActive": true,
        "active": true,
        "becomingActive": false,
        "lat": 65.9865980885235,
        "lng": 29.1247411853625,
        "longcode": "EFKS TMA",
        "longname": "D 2500 FT MSL - FL 95"
      }
    },
    {
      "type": "Feature",
      "geometry": {
        "type": "Polygon",
        "coordinates": [
          [
            [28.4247222222222, 61.3725],
            [28.6880555555556, 61.3097222222222],
            [28.6647222222222, 61.0583333333333],
            [28.5011111111111, 60.9833333333333],
            [27.7536111111111, 60.7244444444444],
            [27.72, 60.8244444444444],
            [27.4261111111111, 61.0833333333333],
            [27.35, 61.1494444444444],
            [28.4247222222222, 61.3725]
          ]
        ]
      },
      "properties": {
        "name": "EFLP TMA",
        "upper": "FL 95",
        "lower": "1600 FT MSL",
        "airspaceclass": "D",
        "callsign": "LAPPEENRANNAN TORNI, LAPPEENRANTA TOWER",
        "lang": "EN, FI",
        "freq": "120.200",
        "activity": "HO",
        "rmk": "RMZ H24",
        "activitytype": "",
        "code": "EFLP",
        "type": "TMA",
        "upperMeters": 2900,
        "lowerMeters": 500,
        "sort": 2,
        "notams": [],
        "alwaysActive": true,
        "active": true,
        "becomingActive": false,
        "lat": 61.0484722222222,
        "lng": 28.0190277777778,
        "longcode": "EFLP TMA",
        "longname": "D 1600 FT MSL - FL 95"
      }
    },
    {
      "type": "Feature",
      "geometry": {
        "type": "Polygon",
        "coordinates": [
          [
            [20.1002777777778, 60.5591666666667],
            [20.4052777777778, 60.4933333333333],
            [20.6319444444444, 60.2980555555556],
            [20.1438888888889, 59.7330555555556],
            [19.7988888888889, 59.6947222222222],
            [19.2688888888889, 60.0663888888889],
            [19.6547222222222, 60.5091666666667],
            [20.1002777777778, 60.5591666666667]
          ]
        ]
      },
      "properties": {
        "name": "EFMA TMA",
        "upper": "FL 95",
        "lower": "1300 FT MSL",
        "airspaceclass": "D",
        "callsign": "MAARIANHAMINAN TORNI, MAARIANHAMINA TOWER",
        "lang": "EN, FI",
        "freq": "119.600",
        "activity": "HO",
        "rmk": "RMZ H24, TMZ HO",
        "activitytype": "",
        "code": "EFMA",
        "type": "TMA",
        "upperMeters": 2900,
        "lowerMeters": 400,
        "sort": 2,
        "notams": [],
        "alwaysActive": true,
        "active": true,
        "becomingActive": false,
        "lat": 60.1269444444444,
        "lng": 19.9504166666667,
        "longcode": "EFMA TMA",
        "longname": "D 1300 FT MSL - FL 95"
      }
    },
    {
      "type": "Feature",
      "geometry": {
        "type": "Polygon",
        "coordinates": [
          [
            [25.1836111111111, 65.4058333333333],
            [26.3083333333333, 64.9963888888889],
            [26.3125, 64.7791666666667],
            [25.9177777777778, 64.5044444444445],
            [25.6766666666667, 64.4533333333333],
            [25.0233333333333, 64.4275],
            [24.5230555555556, 64.6669444444445],
            [24.2202777777778, 64.9077777777778],
            [24.1922222222222, 65.1119444444444],
            [24.4147222222222, 65.3047222222222],
            [25.1836111111111, 65.4058333333333]
          ]
        ]
      },
      "properties": {
        "name": "EFOU TMA",
        "upper": "FL 95",
        "lower": "1700 FT MSL",
        "airspaceclass": "D",
        "callsign": "OULUN TUTKA, OULU RADAR",
        "lang": "EN, FI",
        "freq": "118.150",
        "activity": "HO",
        "rmk": "RMZ H24, TMZ H24",
        "activitytype": "",
        "code": "EFOU",
        "type": "TMA",
        "upperMeters": 2900,
        "lowerMeters": 500,
        "sort": 2,
        "notams": [],
        "alwaysActive": true,
        "active": true,
        "becomingActive": false,
        "lat": 64.9066555206039,
        "lng": 25.2314504955539,
        "longcode": "EFOU TMA",
        "longname": "D 1700 FT MSL - FL 95"
      }
    },
    {
      "type": "Feature",
      "geometry": {
        "type": "Polygon",
        "coordinates": [
          [
            [22.5041666666667, 61.525],
            [22.6244444444444, 61.4825],
            [22.6730555555556, 61.4886111111111],
            [22.6252777777778, 61.1694444444444],
            [22.5983333333333, 61.1766666666667],
            [22.4505555555556, 61.1525],
            [22.5041666666667, 61.525]
          ]
        ]
      },
      "properties": {
        "name": "EFPO TMA EAST",
        "upper": "FL 95",
        "lower": "FL 65",
        "airspaceclass": "D",
        "callsign": "PORIN TUTKA, PORI RADAR",
        "lang": "EN, FI",
        "freq": "128.650",
        "activity": "HO",
        "rmk": "RMZ H24, TMZ HO",
        "activitytype": "",
        "code": "EFPO",
        "type": "TMA",
        "upperMeters": 2900,
        "lowerMeters": 2000,
        "sort": 2,
        "notams": [],
        "alwaysActive": true,
        "active": true,
        "becomingActive": false,
        "lat": 61.33875,
        "lng": 22.5618055555556,
        "longcode": "EFPO TMA EAST",
        "longname": "D FL 65 - FL 95"
      }
    },
    {
      "type": "Feature",
      "geometry": {
        "type": "Polygon",
        "coordinates": [
          [
            [21.5777777777778, 61.8447222222222],
            [22.5041666666667, 61.525],
            [22.4505555555556, 61.1525],
            [21.8927777777778, 61.06],
            [20.9672222222222, 61.3780555555556],
            [20.9719444444444, 61.6405555555556],
            [21.1733333333333, 61.7763888888889],
            [21.5777777777778, 61.8447222222222]
          ]
        ]
      },
      "properties": {
        "name": "EFPO TMA WEST",
        "upper": "FL 95",
        "lower": "1700 FT MSL",
        "airspaceclass": "D",
        "callsign": "PORIN TUTKA, PORI RADAR",
        "lang": "EN, FI",
        "freq": "128.650",
        "activity": "HO",
        "rmk": "RMZ H24, TMZ HO",
        "activitytype": "",
        "code": "EFPO",
        "type": "TMA",
        "upperMeters": 2900,
        "lowerMeters": 500,
        "sort": 2,
        "notams": [],
        "alwaysActive": true,
        "active": true,
        "becomingActive": false,
        "lat": 61.4523611111111,
        "lng": 21.7356944444444,
        "longcode": "EFPO TMA WEST",
        "longname": "D 1700 FT MSL - FL 95"
      }
    },
    {
      "type": "Feature",
      "geometry": {
        "type": "Polygon",
        "coordinates": [
          [
            [25.7116666666667, 66.9641666666667],
            [26.325, 66.955],
            [26.6547222222222, 66.8547222222222],
            [26.8022222222222, 66.6616666666667],
            [26.6402777777778, 66.4877777777778],
            [26.0586111111111, 66.1183333333333],
            [25.2833333333333, 66.0555555555556],
            [24.9155555555556, 66.1772222222222],
            [24.7008333333333, 66.1888888888889],
            [24.6888888888889, 66.4588888888889],
            [24.7783333333333, 66.5863888888889],
            [25.1463888888889, 66.7730555555556],
            [25.7116666666667, 66.9641666666667]
          ]
        ]
      },
      "properties": {
        "name": "EFRO TMA",
        "upper": "FL 95",
        "lower": "2000 FT MSL",
        "airspaceclass": "C",
        "callsign": "ROVANIEMEN TUTKA, ROVANIEMI RADAR",
        "lang": "EN, FI",
        "freq": "129.900",
        "activity": "H24",
        "rmk": "",
        "activitytype": "",
        "code": "EFRO",
        "type": "TMA",
        "upperMeters": 2900,
        "lowerMeters": 600,
        "sort": 2,
        "notams": [],
        "alwaysActive": true,
        "active": true,
        "becomingActive": false,
        "lat": 66.5169389056834,
        "lng": 25.7187330419469,
        "longcode": "EFRO TMA",
        "longname": "C 2000 FT MSL - FL 95"
      }
    },
    {
      "type": "Feature",
      "geometry": {
        "type": "Polygon",
        "coordinates": [
          [
            [23.7522222222222, 61.7233333333333],
            [24.1319444444444, 61.7186111111111],
            [24.5977777777778, 61.6],
            [24.59, 61.2452777777778],
            [23.9172222222222, 61.0966666666667],
            [23.3691666666667, 61.0616666666667],
            [23.1413888888889, 61.1111111111111],
            [22.8911111111111, 61.3572222222222],
            [22.9019444444444, 61.5291666666667],
            [23.7522222222222, 61.7233333333333]
          ]
        ]
      },
      "properties": {
        "name": "EFTP TMA EAST",
        "upper": "FL 95",
        "lower": "2000 FT MSL",
        "airspaceclass": "C",
        "callsign": "PIRKKALAN TUTKA, PIRKKALA RADAR",
        "lang": "EN, FI",
        "freq": "126.200",
        "activity": "H24",
        "rmk": "TMZ H24",
        "activitytype": "",
        "code": "EFTP",
        "type": "TMA",
        "upperMeters": 2900,
        "lowerMeters": 600,
        "sort": 2,
        "notams": [],
        "alwaysActive": true,
        "active": true,
        "becomingActive": false,
        "lat": 61.3963303710017,
        "lng": 23.7651603645081,
        "longcode": "EFTP TMA EAST",
        "longname": "C 2000 FT MSL - FL 95"
      }
    },
    {
      "type": "Feature",
      "geometry": {
        "type": "Polygon",
        "coordinates": [
          [
            [22.9019444444444, 61.5291666666667],
            [22.8911111111111, 61.3572222222222],
            [23.1413888888889, 61.1111111111111],
            [23.3691666666667, 61.0616666666667],
            [23.0716666666667, 61.0475],
            [22.6252777777778, 61.1694444444444],
            [22.6730555555556, 61.4886111111111],
            [22.7908333333333, 61.5033333333333],
            [22.9019444444444, 61.5291666666667]
          ]
        ]
      },
      "properties": {
        "name": "EFTP TMA WEST",
        "upper": "FL 95",
        "lower": "FL 65",
        "airspaceclass": "C",
        "callsign": "PIRKKALAN TUTKA, PIRKKALA RADAR",
        "lang": "EN, FI",
        "freq": "126.200",
        "activity": "H24",
        "rmk": "TMZ H24",
        "activitytype": "",
        "code": "EFTP",
        "type": "TMA",
        "upperMeters": 2900,
        "lowerMeters": 2000,
        "sort": 2,
        "notams": [],
        "alwaysActive": true,
        "active": true,
        "becomingActive": false,
        "lat": 61.2567459470646,
        "lng": 22.8629556683006,
        "longcode": "EFTP TMA WEST",
        "longname": "C FL 65 - FL 95"
      }
    },
    {
      "type": "Feature",
      "geometry": {
        "type": "Polygon",
        "coordinates": [
          [
            [22.1336111111111, 60.7741666666667],
            [22.8805555555556, 60.7716666666667],
            [23.1655555555556, 60.6344444444444],
            [23.1913888888889, 60.4683333333333],
            [22.9575, 60.2316666666667],
            [21.8997222222222, 60.1119444444445],
            [21.3858333333333, 60.3886111111111],
            [21.3508333333333, 60.5544444444444],
            [21.5858333333333, 60.7330555555556],
            [22.1336111111111, 60.7741666666667]
          ]
        ]
      },
      "properties": {
        "name": "EFTU TMA",
        "upper": "FL 95",
        "lower": "1700 FT MSL",
        "airspaceclass": "D",
        "callsign": "TURUN TUTKA, TURKU RADAR",
        "lang": "EN, FI",
        "freq": "120.475",
        "activity": "H24",
        "rmk": "TMZ H24",
        "activitytype": "",
        "code": "EFTU",
        "type": "TMA",
        "upperMeters": 2900,
        "lowerMeters": 500,
        "sort": 2,
        "notams": [],
        "alwaysActive": true,
        "active": true,
        "becomingActive": false,
        "lat": 60.4745417394666,
        "lng": 22.2759042908096,
        "longcode": "EFTU TMA",
        "longname": "D 1700 FT MSL - FL 95"
      }
    },
    {
      "type": "Feature",
      "geometry": {
        "type": "Polygon",
        "coordinates": [
          [
            [27.4261111111111, 61.0833333333333],
            [27.72, 60.8244444444444],
            [27.7536111111111, 60.7244444444444],
            [26.4305555555556, 60.5872222222222],
            [26.1258333333333, 60.7244444444444],
            [26.0508333333333, 60.8869444444444],
            [26.0902777777778, 60.9338888888889],
            [26.4975, 60.9811111111111],
            [27.2361111111111, 61.0630555555556],
            [27.4261111111111, 61.0833333333333]
          ]
        ]
      },
      "properties": {
        "name": "EFUT TMA",
        "upper": "FL 95",
        "lower": "1800 FT MSL",
        "airspaceclass": "D",
        "callsign": "UTIN TORNI, UTTI TOWER",
        "lang": "EN, FI",
        "freq": "130.800",
        "activity": "HO",
        "rmk": "RMZ H24",
        "activitytype": "",
        "code": "EFUT",
        "type": "TMA",
        "upperMeters": 2900,
        "lowerMeters": 550,
        "sort": 2,
        "notams": [],
        "alwaysActive": true,
        "active": true,
        "becomingActive": false,
        "lat": 60.8300089595347,
        "lng": 26.8956100377625,
        "longcode": "EFUT TMA",
        "longname": "D 1800 FT MSL - FL 95"
      }
    },
    {
      "type": "Feature",
      "geometry": {
        "type": "Polygon",
        "coordinates": [
          [
            [21.5897222222222, 63.5633333333333],
            [21.8791666666667, 63.485],
            [22.1236111111111, 63.4241666666667],
            [22.3313888888889, 63.1161111111111],
            [22.3880555555556, 63.0308333333333],
            [22.265, 62.7602777777778],
            [22.2158333333333, 62.6508333333333],
            [21.8652777777778, 62.6027777777778],
            [21.3980555555556, 62.6761111111111],
            [20.9830555555556, 62.9411111111111],
            [21.0027777777778, 63.27],
            [21.2997222222222, 63.4511111111111],
            [21.5897222222222, 63.5633333333333]
          ]
        ]
      },
      "properties": {
        "name": "EFVA TMA",
        "upper": "FL 95",
        "lower": "1800 FT MSL",
        "airspaceclass": "D",
        "callsign": "VAASAN TORNI, VAASA TOWER",
        "lang": "EN, FI",
        "freq": "120.950",
        "activity": "HO",
        "rmk": "RMZ H24, TMZ H24",
        "activitytype": "",
        "code": "EFVA",
        "type": "TMA",
        "upperMeters": 2900,
        "lowerMeters": 550,
        "sort": 2,
        "notams": [],
        "alwaysActive": true,
        "active": true,
        "becomingActive": false,
        "lat": 63.0830555555556,
        "lng": 21.6855555555556,
        "longcode": "EFVA TMA",
        "longname": "D 1800 FT MSL - FL 95"
      }
    },
    {
      "type": "Feature",
      "geometry": {
        "type": "Polygon",
        "coordinates": [
          [
            [25.2088888888889, 61.9938888888889],
            [25.2405555555556, 61.745],
            [24.3958333333333, 61.7180555555556],
            [24.3561111111111, 61.9663888888889],
            [25.2088888888889, 61.9938888888889]
          ]
        ]
      },
      "properties": {
        "name": "EFHA CTR",
        "upper": "2000 FT MSL",
        "lower": "SFC",
        "airspaceclass": "D",
        "callsign": "HALLIN TORNI, HALLI TOWER",
        "lang": "FI, EN",
        "freq": "128.900 119.700 121.500 (EMERG)",
        "activity": "HO",
        "rmk": "RMZ H24",
        "activitytype": "",
        "code": "EFHA",
        "type": "CTR",
        "upperMeters": 600,
        "lowerMeters": 0,
        "sort": 4,
        "notams": [],
        "alwaysActive": true,
        "active": true,
        "becomingActive": false,
        "lat": 61.8560337017903,
        "lng": 24.8004030031763,
        "longcode": "EFHA CTR",
        "longname": "D SFC - 2000 FT MSL"
      }
    },
    {
      "type": "Feature",
      "geometry": {
        "type": "Polygon",
        "coordinates": [
          [
            [24.7075, 60.4119444444444],
            [24.9216666666667, 60.4577777777778],
            [24.9577777777778, 60.4558333333333],
            [25.1422222222222, 60.4094444444444],
            [25.2055555555556, 60.3691666666667],
            [25.2116666666667, 60.2747222222222],
            [25.1538888888889, 60.2275],
            [25.0197222222222, 60.1938888888889],
            [24.9975, 60.2205555555556],
            [24.9269444444444, 60.2061111111111],
            [24.8136111111111, 60.2172222222222],
            [24.6866666666667, 60.2733333333333],
            [24.6472222222222, 60.3266666666667],
            [24.7075, 60.4119444444444]
          ]
        ]
      },
      "properties": {
        "name": "EFHK CTR",
        "url": "",
        "upper": "1300 FT MSL",
        "lower": "SFC",
        "airspaceclass": "D",
        "callsign": "HELSINKI TOWER",
        "lang": "EN",
        "freq": "",
        "activity": "H24",
        "activitytype": "",
        "start-date": "",
        "end-date": "",
        "rmk": "TMZ HO",
        "code": "EFHK",
        "type": "CTR",
        "upperMeters": 400,
        "lowerMeters": 0,
        "sort": 4,
        "notams": [],
        "alwaysActive": true,
        "active": true,
        "becomingActive": false,
        "lat": 60.3258333333333,
        "lng": 24.9294444444444,
        "longcode": "EFHK CTR",
        "longname": "D SFC - 1300 FT MSL"
      }
    },
    {
      "type": "Feature",
      "geometry": {
        "type": "Polygon",
        "coordinates": [
          [
            [27.6127777777778, 68.8472222222222],
            [28.0786111111111, 68.6644444444445],
            [27.2055555555556, 68.3666666666667],
            [26.7386111111111, 68.5472222222222],
            [27.6127777777778, 68.8472222222222]
          ]
        ]
      },
      "properties": {
        "name": "EFIV CTR",
        "upper": "3000 FT MSL",
        "lower": "SFC",
        "airspaceclass": "D",
        "callsign": "IVALON TORNI, IVALO TOWER",
        "lang": "FI, EN",
        "freq": "118.000 119.700 121.500 (EMERG)",
        "activity": "HO",
        "rmk": "RMZ H24",
        "activitytype": "",
        "code": "EFIV",
        "type": "CTR",
        "upperMeters": 900,
        "lowerMeters": 0,
        "sort": 4,
        "notams": [],
        "alwaysActive": true,
        "active": true,
        "becomingActive": false,
        "lat": 68.6065862308793,
        "lng": 27.4091204493857,
        "longcode": "EFIV CTR",
        "longname": "D SFC - 3000 FT MSL"
      }
    },
    {
      "type": "Feature",
      "geometry": {
        "type": "Polygon",
        "coordinates": [
          [
            [29.3169444444444, 62.8444444444445],
            [30.1147222222222, 62.7086111111111],
            [29.9233333333333, 62.4755555555556],
            [29.1319444444444, 62.6102777777778],
            [29.3169444444444, 62.8444444444445]
          ]
        ]
      },
      "properties": {
        "name": "EFJO CTR",
        "upper": "2000 FT MSL",
        "lower": "SFC",
        "airspaceclass": "D",
        "callsign": "JOENSUUN TORNI, JOENSUU TOWER",
        "lang": "FI, EN",
        "freq": "120.900 119.700 121.500 (EMERG)",
        "activity": "HO",
        "rmk": "RMZ H24",
        "activitytype": "",
        "code": "EFJO",
        "type": "CTR",
        "upperMeters": 600,
        "lowerMeters": 0,
        "sort": 4,
        "notams": [],
        "alwaysActive": true,
        "active": true,
        "becomingActive": false,
        "lat": 62.6598801517583,
        "lng": 29.621856703923,
        "longcode": "EFJO CTR",
        "longname": "D SFC - 2000 FT MSL"
      }
    },
    {
      "type": "Feature",
      "geometry": {
        "type": "Polygon",
        "coordinates": [
          [
            [25.5880555555556, 62.6125],
            [26.175, 62.3491666666667],
            [25.8019444444444, 62.1705555555556],
            [25.2152777777778, 62.4322222222222],
            [25.5880555555556, 62.6125]
          ]
        ]
      },
      "properties": {
        "name": "EFJY CTR",
        "upper": "2000 FT MSL",
        "lower": "SFC",
        "airspaceclass": "D",
        "callsign": "JYVÄSKYLÄN TORNI, JYVÄSKYLÄ TOWER",
        "lang": "FI, EN",
        "freq": "118.000 119.700 121.500 (EMERG)",
        "activity": "HO",
        "rmk": "RMZ H24",
        "activitytype": "",
        "code": "EFJY",
        "type": "CTR",
        "upperMeters": 600,
        "lowerMeters": 0,
        "sort": 4,
        "notams": [],
        "alwaysActive": true,
        "active": true,
        "becomingActive": false,
        "lat": 62.3912579612316,
        "lng": 25.6949543028155,
        "longcode": "EFJY CTR",
        "longname": "D SFC - 2000 FT MSL"
      }
    },
    {
      "type": "Feature",
      "geometry": {
        "type": "Polygon",
        "coordinates": [
          [
            [24.3375, 65.9777777777778],
            [24.9430555555556, 65.9444444444444],
            [24.8191666666667, 65.5733333333333],
            [24.2227777777778, 65.6055555555556],
            [24.3375, 65.9777777777778]
          ]
        ]
      },
      "properties": {
        "name": "EFKE CTR",
        "upper": "2000 FT MSL",
        "lower": "SFC",
        "airspaceclass": "D",
        "callsign": "KEMIN TORNI, KEMI TOWER",
        "lang": "FI, EN",
        "freq": "119.400 119.700 121.500 (EMERG)",
        "activity": "HO",
        "rmk": "RMZ H24",
        "activitytype": "",
        "code": "EFKE",
        "type": "CTR",
        "upperMeters": 600,
        "lowerMeters": 0,
        "sort": 4,
        "notams": [],
        "alwaysActive": true,
        "active": true,
        "becomingActive": false,
        "lat": 65.7755555555555,
        "lng": 24.5829166666667,
        "longcode": "EFKE CTR",
        "longname": "D SFC - 2000 FT MSL"
      }
    },
    {
      "type": "Feature",
      "geometry": {
        "type": "Polygon",
        "coordinates": [
          [
            [25.0413888888889, 67.9405555555556],
            [25.2944444444444, 67.5261111111111],
            [24.6613888888889, 67.4691666666667],
            [24.3977777777778, 67.8827777777778],
            [25.0413888888889, 67.9405555555556]
          ]
        ]
      },
      "properties": {
        "name": "EFKT CTR",
        "url": "",
        "upper": "3300 FT MSL",
        "lower": "SFC",
        "airspaceclass": "D",
        "callsign": "KITTILÄN TORNI, KITTILÄ TOWER",
        "lang": "FI, EN",
        "freq": "",
        "activity": "",
        "activitytype": "",
        "start-date": "",
        "end-date": "",
        "rmk": "RMZ outside ATS OPR HR, TMZ HO",
        "code": "EFKT",
        "type": "CTR",
        "upperMeters": 1000,
        "lowerMeters": 0,
        "sort": 4,
        "notams": [],
        "alwaysActive": true,
        "active": true,
        "becomingActive": false,
        "lat": 67.7048611111111,
        "lng": 24.8461111111111,
        "longcode": "EFKT CTR",
        "longname": "D SFC - 3300 FT MSL"
      }
    },
    {
      "type": "Feature",
      "geometry": {
        "type": "Polygon",
        "coordinates": [
          [
            [22.9422222222222, 63.9225],
            [23.4975, 63.8763888888889],
            [23.3366666666667, 63.5047222222222],
            [22.7880555555556, 63.5508333333333],
            [22.9422222222222, 63.9225]
          ]
        ]
      },
      "properties": {
        "name": "EFKK CTR",
        "upper": "1900 FT MSL",
        "lower": "SFC",
        "airspaceclass": "D",
        "callsign": "KRUUNUN TORNI, KRUUNU TOWER",
        "lang": "FI, EN",
        "freq": "120.100 119.700 121.500 (EMERG)",
        "activity": "HO",
        "rmk": "RMZ H24",
        "activitytype": "",
        "code": "EFKK",
        "type": "CTR",
        "upperMeters": 600,
        "lowerMeters": 0,
        "sort": 4,
        "notams": [],
        "alwaysActive": true,
        "active": true,
        "becomingActive": false,
        "lat": 63.7136111111111,
        "lng": 23.1427777777778,
        "longcode": "EFKK CTR",
        "longname": "D SFC - 1900 FT MSL"
      }
    },
    {
      "type": "Feature",
      "geometry": {
        "type": "Polygon",
        "coordinates": [
          [
            [27.8852777777778, 63.2347222222222],
            [28.2205555555556, 62.8688888888889],
            [27.7177777777778, 62.7727777777778],
            [27.3772222222222, 63.1375],
            [27.8852777777778, 63.2347222222222]
          ]
        ]
      },
      "properties": {
        "name": "EFKU CTR",
        "upper": "2000 FT MSL",
        "lower": "SFC",
        "airspaceclass": "D",
        "callsign": "KUOPION TORNI, KUOPIO TOWER",
        "lang": "FI, EN",
        "freq": "120.150 119.700 121.500 (EMERG)",
        "activity": "H24",
        "rmk": "",
        "activitytype": "",
        "code": "EFKU",
        "type": "CTR",
        "upperMeters": 600,
        "lowerMeters": 0,
        "sort": 4,
        "notams": [],
        "alwaysActive": true,
        "active": true,
        "becomingActive": false,
        "lat": 63.0037968063734,
        "lng": 27.7999197858531,
        "longcode": "EFKU CTR",
        "longname": "D SFC - 2000 FT MSL"
      }
    },
    {
      "type": "Feature",
      "geometry": {
        "type": "Polygon",
        "coordinates": [
          [
            [29.0475, 66.2258333333333],
            [29.7966666666667, 65.9486111111111],
            [29.3855555555556, 65.765],
            [28.6372222222222, 66.0402777777778],
            [29.0475, 66.2258333333333]
          ]
        ]
      },
      "properties": {
        "name": "EFKS CTR",
        "url": "",
        "upper": "2500 FT MSL",
        "lower": "SFC",
        "airspaceclass": "D",
        "callsign": "KUUSAMON TORNI, KUUSAMO TOWER",
        "lang": "FI, EN",
        "freq": "",
        "activity": "",
        "activitytype": "",
        "start-date": "",
        "end-date": "",
        "rmk": "RMZ outside ATS OPR HR, TMZ HO",
        "code": "EFKS",
        "type": "CTR",
        "upperMeters": 750,
        "lowerMeters": 0,
        "sort": 4,
        "notams": [],
        "alwaysActive": true,
        "active": true,
        "becomingActive": false,
        "lat": 65.9951008883773,
        "lng": 29.2165617375175,
        "longcode": "EFKS CTR",
        "longname": "D SFC - 2500 FT MSL"
      }
    },
    {
      "type": "Feature",
      "geometry": {
        "type": "Polygon",
        "coordinates": [
          [
            [28.4036111111111, 61.2330555555556],
            [28.5869444444444, 61.0230555555556],
            [27.8827777777778, 60.8766666666667],
            [27.6955555555556, 61.0858333333333],
            [28.4036111111111, 61.2330555555556]
          ]
        ]
      },
      "properties": {
        "name": "EFLP CTR",
        "upper": "1600 FT MSL",
        "lower": "SFC",
        "airspaceclass": "D",
        "callsign": "LAPPEENRANNAN TORNI, LAPPEENRANTA TOWER",
        "lang": "FI, EN",
        "freq": "120.200 119.700 121.500 (EMERG)",
        "activity": "HO",
        "rmk": "RMZ H24",
        "activitytype": "",
        "code": "EFLP",
        "type": "CTR",
        "upperMeters": 500,
        "lowerMeters": 0,
        "sort": 4,
        "notams": [],
        "alwaysActive": true,
        "active": true,
        "becomingActive": false,
        "lat": 61.0547506486897,
        "lng": 28.1421426658941,
        "longcode": "EFLP CTR",
        "longname": "D SFC - 1600 FT MSL"
      }
    },
    {
      "type": "Feature",
      "geometry": {
        "type": "Polygon",
        "coordinates": [
          [
            [19.8152777777778, 60.3411111111111],
            [20.2752777777778, 60.2416666666667],
            [19.9875, 59.9125],
            [19.5316666666667, 60.0105555555556],
            [19.8152777777778, 60.3411111111111]
          ]
        ]
      },
      "properties": {
        "name": "EFMA CTR",
        "upper": "1300 FT MSL",
        "lower": "SFC",
        "airspaceclass": "D",
        "callsign": "MAARIANHAMINAN TORNI, MARIEHAMN TOWER",
        "lang": "FI, EN",
        "freq": "119.600 119.700 121.500 (EMERG)",
        "activity": "HO",
        "rmk": "RMZ H24",
        "activitytype": "",
        "code": "EFMA",
        "type": "CTR",
        "upperMeters": 400,
        "lowerMeters": 0,
        "sort": 4,
        "notams": [],
        "alwaysActive": true,
        "active": true,
        "becomingActive": false,
        "lat": 60.126740244707,
        "lng": 19.9026179953338,
        "longcode": "EFMA CTR",
        "longname": "D SFC - 1300 FT MSL"
      }
    },
    {
      "type": "Feature",
      "geometry": {
        "type": "Polygon",
        "coordinates": [
          [
            [25.1136111111111, 65.1361111111111],
            [25.6483333333333, 65.0002777777778],
            [25.7469444444444, 64.8311111111111],
            [25.5933333333333, 64.7233333333333],
            [24.8127777777778, 64.9219444444445],
            [25.1136111111111, 65.1361111111111]
          ]
        ]
      },
      "properties": {
        "name": "EFOU CTR",
        "upper": "1700 FT MSL",
        "lower": "SFC",
        "airspaceclass": "D",
        "callsign": "OULUN TORNI, OULU TOWER",
        "lang": "FI, EN",
        "freq": "124.400 119.700 121.500 (EMERG)",
        "activity": "HO",
        "rmk": "RMZ H24",
        "activitytype": "",
        "code": "EFOU",
        "type": "CTR",
        "upperMeters": 500,
        "lowerMeters": 0,
        "sort": 4,
        "notams": [],
        "alwaysActive": true,
        "active": true,
        "becomingActive": false,
        "lat": 64.930220687727,
        "lng": 25.3193984955873,
        "longcode": "EFOU CTR",
        "longname": "D SFC - 1700 FT MSL"
      }
    },
    {
      "type": "Feature",
      "geometry": {
        "type": "Polygon",
        "coordinates": [
          [
            [21.6238888888889, 61.6752777777778],
            [22.2738888888889, 61.4508333333333],
            [21.9683333333333, 61.2494444444444],
            [21.3205555555556, 61.4725],
            [21.6238888888889, 61.6752777777778]
          ]
        ]
      },
      "properties": {
        "name": "EFPO CTR",
        "upper": "1700 FT MSL",
        "lower": "SFC",
        "airspaceclass": "D",
        "callsign": "PORIN TORNI, PORI TOWER",
        "lang": "FI, EN",
        "freq": "119.250 119.700 121.500 (EMERG)",
        "activity": "HO",
        "rmk": "RMZ H24",
        "activitytype": "",
        "code": "EFPO",
        "type": "CTR",
        "upperMeters": 500,
        "lowerMeters": 0,
        "sort": 4,
        "notams": [],
        "alwaysActive": true,
        "active": true,
        "becomingActive": false,
        "lat": 61.4621253896167,
        "lng": 21.7966680427236,
        "longcode": "EFPO CTR",
        "longname": "D SFC - 1700 FT MSL"
      }
    },
    {
      "type": "Feature",
      "geometry": {
        "type": "Polygon",
        "coordinates": [
          [
            [25.8716666666667, 66.7925],
            [26.1966666666667, 66.6944444444444],
            [26.2702777777778, 66.5888888888889],
            [25.7761111111111, 66.3305555555556],
            [25.2788888888889, 66.4891666666667],
            [25.8716666666667, 66.7925]
          ]
        ]
      },
      "properties": {
        "name": "EFRO CTR",
        "upper": "2000 FT MSL",
        "lower": "SFC",
        "airspaceclass": "D",
        "callsign": "ROVANIEMEN TORNI, ROVANIEMI TOWER",
        "lang": "FI, EN",
        "freq": "118.700 119.700 121.500 (EMERG)",
        "activity": "H24",
        "rmk": "",
        "activitytype": "",
        "code": "EFRO",
        "type": "CTR",
        "upperMeters": 600,
        "lowerMeters": 0,
        "sort": 4,
        "notams": [],
        "alwaysActive": true,
        "active": true,
        "becomingActive": false,
        "lat": 66.5604421400844,
        "lng": 25.8105171109193,
        "longcode": "EFRO CTR",
        "longname": "D SFC - 2000 FT MSL"
      }
    },
    {
      "type": "Feature",
      "geometry": {
        "type": "Polygon",
        "coordinates": [
          [
            [23.8577777777778, 61.6097222222222],
            [24.08, 61.3841666666667],
            [23.3511111111111, 61.2175],
            [23.1247222222222, 61.4416666666667],
            [23.8577777777778, 61.6097222222222]
          ]
        ]
      },
      "properties": {
        "name": "EFTP CTR",
        "upper": "2000 FT MSL",
        "lower": "SFC",
        "airspaceclass": "D",
        "callsign": "PIRKKALAN TORNI, PIRKKALA TOWER",
        "lang": "FI, EN",
        "freq": "118.700 119.700 121.500 (EMERG)",
        "activity": "H24",
        "rmk": "",
        "activitytype": "",
        "code": "EFTP",
        "type": "CTR",
        "upperMeters": 600,
        "lowerMeters": 0,
        "sort": 4,
        "notams": [],
        "alwaysActive": true,
        "active": true,
        "becomingActive": false,
        "lat": 61.4134017135879,
        "lng": 23.6033831075146,
        "longcode": "EFTP CTR",
        "longname": "D SFC - 2000 FT MSL"
      }
    },
    {
      "type": "Feature",
      "geometry": {
        "type": "Polygon",
        "coordinates": [
          [
            [22.6538888888889, 60.6558333333333],
            [22.6958333333333, 60.4072222222222],
            [21.8952777777778, 60.3719444444444],
            [21.8466666666667, 60.6197222222222],
            [22.6538888888889, 60.6558333333333]
          ]
        ]
      },
      "properties": {
        "name": "EFTU CTR",
        "upper": "1700 FT MSL",
        "lower": "SFC",
        "airspaceclass": "D",
        "callsign": "TURUN TORNI, TURKU TOWER",
        "lang": "FI, EN",
        "freq": "118.300 119.700 121.500 (EMERG)",
        "activity": "H24",
        "rmk": "",
        "activitytype": "",
        "code": "EFTU",
        "type": "CTR",
        "upperMeters": 500,
        "lowerMeters": 0,
        "sort": 4,
        "notams": [],
        "alwaysActive": true,
        "active": true,
        "becomingActive": false,
        "lat": 60.5138609685765,
        "lng": 22.2730287830734,
        "longcode": "EFTU CTR",
        "longname": "D SFC - 1700 FT MSL"
      }
    },
    {
      "type": "Feature",
      "geometry": {
        "type": "Polygon",
        "coordinates": [
          [
            [27.2361111111111, 61.0630555555556],
            [27.3425, 60.81],
            [26.6080555555556, 60.7344444444444],
            [26.4975, 60.9811111111111],
            [27.2361111111111, 61.0630555555556]
          ]
        ]
      },
      "properties": {
        "name": "EFUT CTR",
        "upper": "1800 FT MSL",
        "lower": "SFC",
        "airspaceclass": "D",
        "callsign": "UTIN TORNI, UTTI TOWER",
        "lang": "FI, EN",
        "freq": "130.800 119.700 121.500 (EMERG)",
        "activity": "HO",
        "rmk": "RMZ H24",
        "activitytype": "",
        "code": "EFUT",
        "type": "CTR",
        "upperMeters": 550,
        "lowerMeters": 0,
        "sort": 4,
        "notams": [],
        "alwaysActive": true,
        "active": true,
        "becomingActive": false,
        "lat": 60.8974894534556,
        "lng": 26.9223554730872,
        "longcode": "EFUT CTR",
        "longname": "D SFC - 1800 FT MSL"
      }
    },
    {
      "type": "Feature",
      "geometry": {
        "type": "Polygon",
        "coordinates": [
          [
            [21.9011111111111, 63.2736111111111],
            [22.1458333333333, 62.9013888888889],
            [21.6238888888889, 62.8297222222222],
            [21.3730555555556, 63.2011111111111],
            [21.9011111111111, 63.2736111111111]
          ]
        ]
      },
      "properties": {
        "name": "EFVA CTR",
        "upper": "1800 FT MSL",
        "lower": "SFC",
        "airspaceclass": "D",
        "callsign": "VAASAN TORNI, VAASA TOWER",
        "lang": "FI, EN",
        "freq": "120.950 119.700 121.500 (EMERG)",
        "activity": "HO",
        "rmk": "RMZ H24",
        "activitytype": "",
        "code": "EFVA",
        "type": "CTR",
        "upperMeters": 550,
        "lowerMeters": 0,
        "sort": 4,
        "notams": [],
        "alwaysActive": true,
        "active": true,
        "becomingActive": false,
        "lat": 63.0518186998912,
        "lng": 21.7607313931156,
        "longcode": "EFVA CTR",
        "longname": "D SFC - 1800 FT MSL"
      }
    }
  ]
}