{
  "type": "FeatureCollection",
  "features": [
    {
      "type": "Feature",
      "properties": {
        "name": "EFET FIZ Upper 2027"
      },
      "geometry": {
        "type": "Polygon",
        "coordinates": [
          [
            [
              23.930833,
              68.770556
            ],
            [
              24.298056,
              68.676111
            ],
            [
              24.416667,
              68.481944
            ],
            [
              24.5,
              68.174167
            ],
            [
              24.396111,
              68.115
            ],
            [
              24.349722,
              68.110556
            ],
            [
              24.268333,
              68.065
            ],
            [
              23.540278,
              68.035833
            ],
            [
              23.226389,
              68.2
            ],
            [
              23.023611,
              68.335833
            ],
            [
              22.757222,
              68.416111
            ],
            [
              23.160833,
              68.629167
            ],
            [
              23.446111,
              68.6975
            ],
            [
              23.664444,
              68.713333
            ],
            [
              23.930833,
              68.770556
            ]
          ]
        ]
      }
    },
    {
      "type": "Feature",
      "properties": {
        "name": "EFET FIZ Mid 2027"
      },
      "geometry": {
        "type": "Polygon",
        "coordinates": [
          [
            [
              23.453611,
              68.596944
            ],
            [
              24.010278,
              68.453889
            ],
            [
              23.38,
              68.12
            ],
            [
              23.226389,
              68.2
            ],
            [
              23.023611,
              68.335833
            ],
            [
              22.986389,
              68.347222
            ],
            [
              23.453611,
              68.596944
            ]
          ]
        ]
      }
    },
    {
      "type": "Feature",
      "properties": {
        "name": "EFET FIZ Lower 2027"
      },
      "geometry": {
        "type": "Polygon",
        "coordinates": [
          [
            [
              23.240556,
              68.387222
            ],
            [
              23.296944,
              68.417222
            ],
            [
              23.494167,
              68.486944
            ],
            [
              23.715833,
              68.43
            ],
            [
              23.6075,
              68.337778
            ],
            [
              23.551389,
              68.307778
            ],
            [
              23.387778,
              68.255278
            ],
            [
              23.165556,
              68.311944
            ],
            [
              23.240556,
              68.387222
            ]
          ]
        ]
      }
    },
    {
      "type": "Feature",
      "properties": {
        "name": "EFHA TMA 2027"
      },
      "geometry": {
        "type": "Polygon",
        "coordinates": [
          [
            [
              25.115833,
              62.167222
            ],
            [
              25.782222,
              61.864444
            ],
            [
              25.505,
              61.625278
            ],
            [
              24.597778,
              61.6
            ],
            [
              24.131944,
              61.718611
            ],
            [
              24.049444,
              61.948611
            ],
            [
              24.089167,
              62.081944
            ],
            [
              25.115833,
              62.167222
            ]
          ]
        ]
      }
    },
    {
      "type": "Feature",
      "properties": {
        "name": "EFHA CTR 2027"
      },
      "geometry": {
        "type": "Polygon",
        "coordinates": [
          [
            [
              25.208889,
              61.993889
            ],
            [
              25.240556,
              61.745
            ],
            [
              24.395833,
              61.718056
            ],
            [
              24.356111,
              61.966389
            ],
            [
              25.208889,
              61.993889
            ]
          ]
        ]
      }
    },
    {
      "type": "Feature",
      "properties": {
        "name": "EFIV TMA Upper 2027"
      },
      "geometry": {
        "type": "Polygon",
        "coordinates": [
          [
            [
              27.915556,
              68.279722
            ],
            [
              27.306667,
              68.065556
            ],
            [
              26.547778,
              68.075278
            ],
            [
              26.023056,
              68.277222
            ],
            [
              26.064444,
              68.498889
            ],
            [
              27.455,
              68.973333
            ],
            [
              28.108611,
              68.978333
            ],
            [
              28.482222,
              68.829722
            ],
            [
              28.428333,
              68.659167
            ],
            [
              27.915556,
              68.279722
            ]
          ]
        ]
      }
    },
    {
      "type": "Feature",
      "properties": {
        "name": "EFIV TMA Lower 2027"
      },
      "geometry": {
        "type": "Polygon",
        "coordinates": [
          [
            [
              28.428333,
              68.659167
            ],
            [
              28.286111,
              68.555278
            ],
            [
              27.240278,
              68.195278
            ],
            [
              26.7375,
              68.190278
            ],
            [
              26.339444,
              68.352222
            ],
            [
              26.392222,
              68.613611
            ],
            [
              27.455,
              68.973333
            ],
            [
              28.108611,
              68.978333
            ],
            [
              28.482222,
              68.829722
            ],
            [
              28.428333,
              68.659167
            ]
          ]
        ]
      }
    },
    {
      "type": "Feature",
      "properties": {
        "name": "EFIV CTR 2027"
      },
      "geometry": {
        "type": "Polygon",
        "coordinates": [
          [
            [
              27.612778,
              68.847222
            ],
            [
              28.078611,
              68.664444
            ],
            [
              27.205556,
              68.366667
            ],
            [
              26.738611,
              68.547222
            ],
            [
              27.612778,
              68.847222
            ]
          ]
        ]
      }
    },
    {
      "type": "Feature",
      "properties": {
        "name": "EFJO TMA Upper 2027"
      },
      "geometry": {
        "type": "Polygon",
        "coordinates": [
          [
            [
              30.123333,
              62.325833
            ],
            [
              29.785833,
              62.203889
            ],
            [
              28.566667,
              62.4125
            ],
            [
              28.825278,
              62.961389
            ],
            [
              29.170278,
              62.981389
            ],
            [
              30.481944,
              62.759167
            ],
            [
              30.568056,
              62.584722
            ],
            [
              30.438056,
              62.428889
            ],
            [
              30.123333,
              62.325833
            ]
          ]
        ]
      }
    },
    {
      "type": "Feature",
      "properties": {
        "name": "EFJO TMA Mid 2027"
      },
      "geometry": {
        "type": "Polygon",
        "coordinates": [
          [
            [
              30.123333,
              62.325833
            ],
            [
              28.830556,
              62.548056
            ],
            [
              28.63,
              62.549167
            ],
            [
              28.825278,
              62.961389
            ],
            [
              29.170278,
              62.981389
            ],
            [
              30.481944,
              62.759167
            ],
            [
              30.568056,
              62.584722
            ],
            [
              30.438056,
              62.428889
            ],
            [
              30.123333,
              62.325833
            ]
          ]
        ]
      }
    },
    {
      "type": "Feature",
      "properties": {
        "name": "EFJO TMA Lower 2027"
      },
      "geometry": {
        "type": "Polygon",
        "coordinates": [
          [
            [
              29.316944,
              62.844444
            ],
            [
              30.114722,
              62.708611
            ],
            [
              29.923333,
              62.475556
            ],
            [
              29.131944,
              62.610278
            ],
            [
              29.316944,
              62.844444
            ]
          ]
        ]
      }
    },
    {
      "type": "Feature",
      "properties": {
        "name": "EFJO CTR 2027"
      },
      "geometry": {
        "type": "Polygon",
        "coordinates": [
          [
            [
              29.638889,
              62.748056
            ],
            [
              29.730556,
              62.732222
            ],
            [
              29.883889,
              62.668889
            ],
            [
              29.807778,
              62.575278
            ],
            [
              29.602222,
              62.573333
            ],
            [
              29.511111,
              62.588889
            ],
            [
              29.3575,
              62.652222
            ],
            [
              29.431944,
              62.745556
            ],
            [
              29.638889,
              62.748056
            ]
          ]
        ]
      }
    },
    {
      "type": "Feature",
      "properties": {
        "name": "EFJY TMA 2027"
      },
      "geometry": {
        "type": "Polygon",
        "coordinates": [
          [
            [
              25.782222,
              61.864444
            ],
            [
              24.821111,
              62.298056
            ],
            [
              24.8325,
              62.630556
            ],
            [
              25.178056,
              62.800833
            ],
            [
              25.664167,
              62.809444
            ],
            [
              26.560833,
              62.410278
            ],
            [
              26.576389,
              62.120556
            ],
            [
              25.782222,
              61.864444
            ]
          ]
        ]
      }
    },
    {
      "type": "Feature",
      "properties": {
        "name": "EFJY CTR 2027"
      },
      "geometry": {
        "type": "Polygon",
        "coordinates": [
          [
            [
              25.588056,
              62.6125
            ],
            [
              26.175,
              62.349167
            ],
            [
              25.801944,
              62.170556
            ],
            [
              25.215278,
              62.432222
            ],
            [
              25.588056,
              62.6125
            ]
          ]
        ]
      }
    },
    {
      "type": "Feature",
      "properties": {
        "name": "EFKI FIZ Upper 2027"
      },
      "geometry": {
        "type": "Polygon",
        "coordinates": [
          [
            [
              26.888333,
              64.456389
            ],
            [
              28.304722,
              64.568611
            ],
            [
              28.628889,
              64.440833
            ],
            [
              28.691389,
              64.279167
            ],
            [
              28.401944,
              63.944722
            ],
            [
              26.946944,
              63.825278
            ],
            [
              26.471667,
              63.983611
            ],
            [
              26.744444,
              64.121667
            ],
            [
              26.669444,
              64.285
            ],
            [
              26.888333,
              64.456389
            ]
          ]
        ]
      }
    },
    {
      "type": "Feature",
      "properties": {
        "name": "EFKI FIZ Mid 2027"
      },
      "geometry": {
        "type": "Polygon",
        "coordinates": [
          [
            [
              26.888333,
              64.456389
            ],
            [
              28.304722,
              64.568611
            ],
            [
              28.628889,
              64.440833
            ],
            [
              28.691389,
              64.279167
            ],
            [
              28.534167,
              64.126389
            ],
            [
              27.028611,
              64.005278
            ],
            [
              26.744444,
              64.121667
            ],
            [
              26.669444,
              64.285
            ],
            [
              26.888333,
              64.456389
            ]
          ]
        ]
      }
    },
    {
      "type": "Feature",
      "properties": {
        "name": "EFKI FIZ Low 2027"
      },
      "geometry": {
        "type": "Polygon",
        "coordinates": [
          [
            [
              28.089444,
              64.443056
            ],
            [
              28.189167,
              64.197778
            ],
            [
              27.299722,
              64.126944
            ],
            [
              27.1925,
              64.371667
            ],
            [
              28.089444,
              64.443056
            ]
          ]
        ]
      }
    },
    {
      "type": "Feature",
      "properties": {
        "name": "EFKI FIZ LOWER 2027"
      },
      "geometry": {
        "type": "Polygon",
        "coordinates": [
          [
            [
              27.606111,
              64.364722
            ],
            [
              27.708056,
              64.372778
            ],
            [
              27.920278,
              64.354167
            ],
            [
              27.960833,
              64.256111
            ],
            [
              27.778056,
              64.206111
            ],
            [
              27.676944,
              64.198056
            ],
            [
              27.46,
              64.216111
            ],
            [
              27.417778,
              64.314167
            ],
            [
              27.606111,
              64.364722
            ]
          ]
        ]
      }
    },
    {
      "type": "Feature",
      "properties": {
        "name": "EFKE TMA Upper 2027"
      },
      "geometry": {
        "type": "Polygon",
        "coordinates": [
          [
            [
              25.283333,
              66.055556
            ],
            [
              25.183611,
              65.405833
            ],
            [
              24.414722,
              65.304722
            ],
            [
              24.149722,
              65.341667
            ],
            [
              24.143889,
              65.468056
            ],
            [
              24.160278,
              65.849722
            ],
            [
              24.280556,
              66.156944
            ],
            [
              24.514444,
              66.198889
            ],
            [
              24.700833,
              66.188889
            ],
            [
              24.915556,
              66.177222
            ],
            [
              25.283333,
              66.055556
            ]
          ]
        ]
      }
    },
    {
      "type": "Feature",
      "properties": {
        "name": "EFKE TMA Lower 2027"
      },
      "geometry": {
        "type": "Polygon",
        "coordinates": [
          [
            [
              24.3375,
              65.977778
            ],
            [
              24.943056,
              65.944444
            ],
            [
              24.819167,
              65.573333
            ],
            [
              24.222778,
              65.605556
            ],
            [
              24.3375,
              65.977778
            ]
          ]
        ]
      }
    },
    {
      "type": "Feature",
      "properties": {
        "name": "EFKE CTR 2027"
      },
      "geometry": {
        "type": "Polygon",
        "coordinates": [
          [
            [
              24.754167,
              65.795833
            ],
            [
              24.739444,
              65.749722
            ],
            [
              24.666944,
              65.664167
            ],
            [
              24.426667,
              65.676944
            ],
            [
              24.410556,
              65.767778
            ],
            [
              24.425278,
              65.813889
            ],
            [
              24.498056,
              65.899722
            ],
            [
              24.738611,
              65.886667
            ],
            [
              24.754167,
              65.795833
            ]
          ]
        ]
      }
    },
    {
      "type": "Feature",
      "properties": {
        "name": "EFKT TMA Upper 2027"
      },
      "geometry": {
        "type": "Polygon",
        "coordinates": [
          [
            [
              24.191667,
              67.243889
            ],
            [
              23.824444,
              67.813056
            ],
            [
              24.349722,
              68.110556
            ],
            [
              24.773889,
              68.150556
            ],
            [
              25.4925,
              68.164167
            ],
            [
              25.983333,
              67.412222
            ],
            [
              25.630833,
              67.176111
            ],
            [
              24.781389,
              67.096389
            ],
            [
              24.191667,
              67.243889
            ]
          ]
        ]
      }
    },
    {
      "type": "Feature",
      "properties": {
        "name": "EFKT TMA Lower 2027"
      },
      "geometry": {
        "type": "Polygon",
        "coordinates": [
          [
            [
              24.422778,
              67.356389
            ],
            [
              24.041111,
              67.936944
            ],
            [
              24.349722,
              68.110556
            ],
            [
              24.773889,
              68.150556
            ],
            [
              25.268333,
              68.05
            ],
            [
              25.644722,
              67.466944
            ],
            [
              25.334444,
              67.290556
            ],
            [
              24.909722,
              67.250833
            ],
            [
              24.422778,
              67.356389
            ]
          ]
        ]
      }
    },
    {
      "type": "Feature",
      "properties": {
        "name": "EFKT CTR 2027"
      },
      "geometry": {
        "type": "Polygon",
        "coordinates": [
          [
            [
              25.041389,
              67.940556
            ],
            [
              25.294444,
              67.526111
            ],
            [
              24.661389,
              67.469167
            ],
            [
              24.397778,
              67.882778
            ],
            [
              25.041389,
              67.940556
            ]
          ]
        ]
      }
    },
    {
      "type": "Feature",
      "properties": {
        "name": "EFKK TMA Upper 2027"
      },
      "geometry": {
        "type": "Polygon",
        "coordinates": [
          [
            [
              23.463056,
              64.000278
            ],
            [
              23.861667,
              63.973333
            ],
            [
              23.637778,
              63.446944
            ],
            [
              23.768889,
              63.203333
            ],
            [
              23.263611,
              63.091944
            ],
            [
              22.691389,
              63.14
            ],
            [
              22.419167,
              63.446944
            ],
            [
              22.623056,
              63.931389
            ],
            [
              22.846389,
              63.950278
            ],
            [
              23.463056,
              64.000278
            ]
          ]
        ]
      }
    },
    {
      "type": "Feature",
      "properties": {
        "name": "EFKK TMA Mid 2027"
      },
      "geometry": {
        "type": "Polygon",
        "coordinates": [
          [
            [
              23.463056,
              64.000278
            ],
            [
              23.861667,
              63.973333
            ],
            [
              23.596944,
              63.348889
            ],
            [
              23.145833,
              63.269444
            ],
            [
              22.777778,
              63.3
            ],
            [
              22.419167,
              63.446944
            ],
            [
              22.623056,
              63.931389
            ],
            [
              22.846389,
              63.950278
            ],
            [
              23.463056,
              64.000278
            ]
          ]
        ]
      }
    },
    {
      "type": "Feature",
      "properties": {
        "name": "EFKK TMA Lower 2027"
      },
      "geometry": {
        "type": "Polygon",
        "coordinates": [
          [
            [
              22.942222,
              63.9225
            ],
            [
              23.4975,
              63.876389
            ],
            [
              23.336667,
              63.504722
            ],
            [
              22.788056,
              63.550833
            ],
            [
              22.942222,
              63.9225
            ]
          ]
        ]
      }
    },
    {
      "type": "Feature",
      "properties": {
        "name": "EFKK CTR 2027"
      },
      "geometry": {
        "type": "Polygon",
        "coordinates": [
          [
            [
              22.945556,
              63.712222
            ],
            [
              22.964167,
              63.756389
            ],
            [
              23.075833,
              63.830556
            ],
            [
              23.296944,
              63.811944
            ],
            [
              23.34,
              63.725
            ],
            [
              23.321111,
              63.681111
            ],
            [
              23.207778,
              63.601667
            ],
            [
              22.986667,
              63.62
            ],
            [
              22.945556,
              63.712222
            ]
          ]
        ]
      }
    },
    {
      "type": "Feature",
      "properties": {
        "name": "EFKU TMA Upper 2027"
      },
      "geometry": {
        "type": "Polygon",
        "coordinates": [
          [
            [
              27.995278,
              63.515
            ],
            [
              28.499722,
              62.9775
            ],
            [
              28.825278,
              62.961389
            ],
            [
              28.566667,
              62.4125
            ],
            [
              27.956111,
              62.396111
            ],
            [
              27.16,
              62.533056
            ],
            [
              27,
              63.324722
            ],
            [
              27.995278,
              63.515
            ]
          ]
        ]
      }
    },
    {
      "type": "Feature",
      "properties": {
        "name": "EFKU TMA Lower 2027"
      },
      "geometry": {
        "type": "Polygon",
        "coordinates": [
          [
            [
              27.995278,
              63.515
            ],
            [
              28.499722,
              62.9775
            ],
            [
              28.825278,
              62.961389
            ],
            [
              28.63,
              62.549167
            ],
            [
              27.16,
              62.533056
            ],
            [
              27,
              63.324722
            ],
            [
              27.995278,
              63.515
            ]
          ]
        ]
      }
    },
    {
      "type": "Feature",
      "properties": {
        "name": "EFKU CTR 2027"
      },
      "geometry": {
        "type": "Polygon",
        "coordinates": [
          [
            [
              27.885278,
              63.234722
            ],
            [
              28.220556,
              62.868889
            ],
            [
              27.717778,
              62.772778
            ],
            [
              27.377222,
              63.1375
            ],
            [
              27.885278,
              63.234722
            ]
          ]
        ]
      }
    },
    {
      "type": "Feature",
      "properties": {
        "name": "EFKS TMA Upper 2027"
      },
      "geometry": {
        "type": "Polygon",
        "coordinates": [
          [
            [
              29.053611,
              66.366389
            ],
            [
              29.906111,
              66.040278
            ],
            [
              30.045556,
              65.738611
            ],
            [
              29.414444,
              65.605556
            ],
            [
              29.258333,
              65.457778
            ],
            [
              27.957778,
              65.943056
            ],
            [
              27.937222,
              66.237222
            ],
            [
              28.475,
              66.483333
            ],
            [
              29.053611,
              66.366389
            ]
          ]
        ]
      }
    },
    {
      "type": "Feature",
      "properties": {
        "name": "EFKS TMA Lower 2027"
      },
      "geometry": {
        "type": "Polygon",
        "coordinates": [
          [
            [
              29.053611,
              66.366389
            ],
            [
              29.906111,
              66.040278
            ],
            [
              30.045556,
              65.738611
            ],
            [
              29.414444,
              65.605556
            ],
            [
              29.371389,
              65.565
            ],
            [
              28.262222,
              66.002778
            ],
            [
              28.210556,
              66.191667
            ],
            [
              28.548056,
              66.345833
            ],
            [
              29.053611,
              66.366389
            ]
          ]
        ]
      }
    },
    {
      "type": "Feature",
      "properties": {
        "name": "EFKS CTR 2027"
      },
      "geometry": {
        "type": "Polygon",
        "coordinates": [
          [
            [
              29.0475,
              66.225833
            ],
            [
              29.796667,
              65.948611
            ],
            [
              29.385556,
              65.765
            ],
            [
              28.637222,
              66.040278
            ],
            [
              29.0475,
              66.225833
            ]
          ]
        ]
      }
    },
    {
      "type": "Feature",
      "properties": {
        "name": "EFLP TMA 2027"
      },
      "geometry": {
        "type": "Polygon",
        "coordinates": [
          [
            [
              28.424722,
              61.3725
            ],
            [
              28.688056,
              61.309722
            ],
            [
              28.664722,
              61.058333
            ],
            [
              28.501111,
              60.983333
            ],
            [
              27.753611,
              60.724444
            ],
            [
              27.72,
              60.824444
            ],
            [
              27.426111,
              61.083333
            ],
            [
              27.35,
              61.149444
            ],
            [
              28.424722,
              61.3725
            ]
          ]
        ]
      }
    },
    {
      "type": "Feature",
      "properties": {
        "name": "EFLP CTR 2027"
      },
      "geometry": {
        "type": "Polygon",
        "coordinates": [
          [
            [
              28.403611,
              61.233056
            ],
            [
              28.586944,
              61.023056
            ],
            [
              27.882778,
              60.876667
            ],
            [
              27.695556,
              61.085833
            ],
            [
              28.403611,
              61.233056
            ]
          ]
        ]
      }
    },
    {
      "type": "Feature",
      "properties": {
        "name": "EFMA TMA Upper 2027"
      },
      "geometry": {
        "type": "Polygon",
        "coordinates": [
          [
            [
              20.980278,
              60.315278
            ],
            [
              20.5975,
              59.875278
            ],
            [
              20.143889,
              59.733056
            ],
            [
              19.785833,
              59.703889
            ],
            [
              19.268889,
              60.066389
            ],
            [
              19.654722,
              60.509167
            ],
            [
              20.0725,
              60.731944
            ],
            [
              20.6825,
              60.6
            ],
            [
              20.980278,
              60.315278
            ]
          ]
        ]
      }
    },
    {
      "type": "Feature",
      "properties": {
        "name": "EFMA TMA Lower 2027"
      },
      "geometry": {
        "type": "Polygon",
        "coordinates": [
          [
            [
              20.631944,
              60.298056
            ],
            [
              20.143889,
              59.733056
            ],
            [
              19.785833,
              59.703889
            ],
            [
              19.268889,
              60.066389
            ],
            [
              19.654722,
              60.509167
            ],
            [
              20.086667,
              60.543889
            ],
            [
              20.391944,
              60.478056
            ],
            [
              20.631944,
              60.298056
            ]
          ]
        ]
      }
    },
    {
      "type": "Feature",
      "properties": {
        "name": "EFMA CTR 2027"
      },
      "geometry": {
        "type": "Polygon",
        "coordinates": [
          [
            [
              19.815278,
              60.341111
            ],
            [
              20.275278,
              60.241667
            ],
            [
              19.9875,
              59.9125
            ],
            [
              19.531667,
              60.010556
            ],
            [
              19.815278,
              60.341111
            ]
          ]
        ]
      }
    },
    {
      "type": "Feature",
      "properties": {
        "name": "EFMI FIZ Upper 2027"
      },
      "geometry": {
        "type": "Polygon",
        "coordinates": [
          [
            [
              26.846944,
              61.914722
            ],
            [
              27.955278,
              61.700278
            ],
            [
              28.089167,
              61.598333
            ],
            [
              27.950556,
              61.445
            ],
            [
              27.591111,
              61.337222
            ],
            [
              26.495,
              61.555
            ],
            [
              26.494444,
              61.706111
            ],
            [
              26.846944,
              61.914722
            ]
          ]
        ]
      }
    },
    {
      "type": "Feature",
      "properties": {
        "name": "EFMI FIZ Lower 2027"
      },
      "geometry": {
        "type": "Polygon",
        "coordinates": [
          [
            [
              26.963889,
              61.868056
            ],
            [
              27.671667,
              61.728056
            ],
            [
              27.4675,
              61.498611
            ],
            [
              26.765278,
              61.6375
            ],
            [
              26.963889,
              61.868056
            ]
          ]
        ]
      }
    },
    {
      "type": "Feature",
      "properties": {
        "name": "EFOU TMA Upper 2027"
      },
      "geometry": {
        "type": "Polygon",
        "coordinates": [
          [
            [
              25.183611,
              65.405833
            ],
            [
              26.308333,
              64.996389
            ],
            [
              26.3125,
              64.779167
            ],
            [
              26.558056,
              64.629167
            ],
            [
              25.676111,
              64.37
            ],
            [
              24.943056,
              64.340556
            ],
            [
              24.364167,
              64.618333
            ],
            [
              24.0275,
              64.884444
            ],
            [
              23.992222,
              65.128611
            ],
            [
              24.149722,
              65.341667
            ],
            [
              24.414722,
              65.304722
            ],
            [
              25.183611,
              65.405833
            ]
          ]
        ]
      }
    },
    {
      "type": "Feature",
      "properties": {
        "name": "EFOU TMA Lower 2027"
      },
      "geometry": {
        "type": "Polygon",
        "coordinates": [
          [
            [
              25.183611,
              65.405833
            ],
            [
              26.308333,
              64.996389
            ],
            [
              26.3125,
              64.779167
            ],
            [
              25.917778,
              64.504444
            ],
            [
              25.676667,
              64.453333
            ],
            [
              25.023333,
              64.4275
            ],
            [
              24.805,
              64.536111
            ],
            [
              24.523056,
              64.666944
            ],
            [
              24.220278,
              64.907778
            ],
            [
              24.192222,
              65.111944
            ],
            [
              24.414722,
              65.304722
            ],
            [
              25.183611,
              65.405833
            ]
          ]
        ]
      }
    },
    {
      "type": "Feature",
      "properties": {
        "name": "EFOU CTR 2027"
      },
      "geometry": {
        "type": "Polygon",
        "coordinates": [
          [
            [
              25.113611,
              65.136111
            ],
            [
              25.648333,
              65.000278
            ],
            [
              25.746944,
              64.831111
            ],
            [
              25.593333,
              64.723333
            ],
            [
              24.812778,
              64.921944
            ],
            [
              25.113611,
              65.136111
            ]
          ]
        ]
      }
    },
    {
      "type": "Feature",
      "properties": {
        "name": "EFPO TMA Upper 2027"
      },
      "geometry": {
        "type": "Polygon",
        "coordinates": [
          [
            [
              21.892778,
              61.06
            ],
            [
              20.967222,
              61.378056
            ],
            [
              20.971944,
              61.640556
            ],
            [
              21.173333,
              61.776389
            ],
            [
              21.577778,
              61.844722
            ],
            [
              22.504167,
              61.525
            ],
            [
              22.673056,
              61.488611
            ],
            [
              22.625278,
              61.169444
            ],
            [
              22.655556,
              61.005278
            ],
            [
              21.892778,
              61.06
            ]
          ]
        ]
      }
    },
    {
      "type": "Feature",
      "properties": {
        "name": "EFPO TMA Lower 2027"
      },
      "geometry": {
        "type": "Polygon",
        "coordinates": [
          [
            [
              21.892778,
              61.06
            ],
            [
              20.967222,
              61.378056
            ],
            [
              20.971944,
              61.640556
            ],
            [
              21.173333,
              61.776389
            ],
            [
              21.577778,
              61.844722
            ],
            [
              22.504167,
              61.525
            ],
            [
              22.450556,
              61.1525
            ],
            [
              21.892778,
              61.06
            ]
          ]
        ]
      }
    },
    {
      "type": "Feature",
      "properties": {
        "name": "EFPO CTR 2027"
      },
      "geometry": {
        "type": "Polygon",
        "coordinates": [
          [
            [
              21.623889,
              61.675278
            ],
            [
              22.273889,
              61.450833
            ],
            [
              21.968333,
              61.249444
            ],
            [
              21.320556,
              61.4725
            ],
            [
              21.623889,
              61.675278
            ]
          ]
        ]
      }
    },
    {
      "type": "Feature",
      "properties": {
        "name": "EFRO TMA Upper 2027"
      },
      "geometry": {
        "type": "Polygon",
        "coordinates": [
          [
            [
              26.871944,
              66.451667
            ],
            [
              26.055556,
              66.023889
            ],
            [
              25.275,
              66.003056
            ],
            [
              25.283333,
              66.055556
            ],
            [
              24.915556,
              66.177222
            ],
            [
              24.643889,
              66.191944
            ],
            [
              24.463611,
              66.501389
            ],
            [
              25.611667,
              67.098611
            ],
            [
              26.452222,
              67.102778
            ],
            [
              26.325,
              66.955
            ],
            [
              26.654722,
              66.854722
            ],
            [
              26.802222,
              66.661667
            ],
            [
              26.640278,
              66.487778
            ],
            [
              26.871944,
              66.451667
            ]
          ]
        ]
      }
    },
    {
      "type": "Feature",
      "properties": {
        "name": "EFRO TMA Lower 2027"
      },
      "geometry": {
        "type": "Polygon",
        "coordinates": [
          [
            [
              25.711667,
              66.964167
            ],
            [
              26.325,
              66.955
            ],
            [
              26.654722,
              66.854722
            ],
            [
              26.802222,
              66.661667
            ],
            [
              26.640278,
              66.487778
            ],
            [
              26.058611,
              66.118333
            ],
            [
              25.283333,
              66.055556
            ],
            [
              24.915556,
              66.177222
            ],
            [
              24.700833,
              66.188889
            ],
            [
              24.688889,
              66.458889
            ],
            [
              24.778333,
              66.586389
            ],
            [
              25.146389,
              66.773056
            ],
            [
              25.711667,
              66.964167
            ]
          ]
        ]
      }
    },
    {
      "type": "Feature",
      "properties": {
        "name": "EFRO CTR 2027"
      },
      "geometry": {
        "type": "Polygon",
        "coordinates": [
          [
            [
              25.871667,
              66.7925
            ],
            [
              26.196667,
              66.694444
            ],
            [
              26.270278,
              66.588889
            ],
            [
              25.776111,
              66.330556
            ],
            [
              25.278889,
              66.489167
            ],
            [
              25.871667,
              66.7925
            ]
          ]
        ]
      }
    },
    {
      "type": "Feature",
      "properties": {
        "name": "EFSA FIZ Upper 2027"
      },
      "geometry": {
        "type": "Polygon",
        "coordinates": [
          [
            [
              28.701111,
              62.335278
            ],
            [
              29.836111,
              61.953889
            ],
            [
              29.749722,
              61.77
            ],
            [
              29.541111,
              61.635
            ],
            [
              29.198889,
              61.541111
            ],
            [
              28.654167,
              61.519444
            ],
            [
              27.754722,
              61.824167
            ],
            [
              28.1125,
              62.118889
            ],
            [
              28.315278,
              62.253889
            ],
            [
              28.701111,
              62.335278
            ]
          ]
        ]
      }
    },
    {
      "type": "Feature",
      "properties": {
        "name": "EFSA FIZ Mid 2027"
      },
      "geometry": {
        "type": "Polygon",
        "coordinates": [
          [
            [
              28.701111,
              62.335278
            ],
            [
              29.836111,
              61.953889
            ],
            [
              29.749722,
              61.77
            ],
            [
              29.541111,
              61.635
            ],
            [
              29.198889,
              61.541111
            ],
            [
              28.079167,
              61.922222
            ],
            [
              28.1125,
              62.118889
            ],
            [
              28.315278,
              62.253889
            ],
            [
              28.701111,
              62.335278
            ]
          ]
        ]
      }
    },
    {
      "type": "Feature",
      "properties": {
        "name": "EFSA FIZ Low 2027"
      },
      "geometry": {
        "type": "Polygon",
        "coordinates": [
          [
            [
              28.781111,
              62.151389
            ],
            [
              29.403611,
              61.940556
            ],
            [
              29.094444,
              61.738889
            ],
            [
              28.473056,
              61.948333
            ],
            [
              28.781111,
              62.151389
            ]
          ]
        ]
      }
    },
    {
      "type": "Feature",
      "properties": {
        "name": "EFSA FIZ LOWER 2027"
      },
      "geometry": {
        "type": "Polygon",
        "coordinates": [
          [
            [
              29.014444,
              62.023889
            ],
            [
              29.086111,
              61.999722
            ],
            [
              29.175833,
              61.926389
            ],
            [
              29.051944,
              61.845278
            ],
            [
              28.876111,
              61.861944
            ],
            [
              28.804722,
              61.886389
            ],
            [
              28.698611,
              61.965
            ],
            [
              28.821389,
              62.045833
            ],
            [
              29.014444,
              62.023889
            ]
          ]
        ]
      }
    },
    {
      "type": "Feature",
      "properties": {
        "name": "EFSI FIZ Upper 2027"
      },
      "geometry": {
        "type": "Polygon",
        "coordinates": [
          [
            [
              22.7325,
              63.072778
            ],
            [
              23.665833,
              62.628056
            ],
            [
              23.551111,
              62.464722
            ],
            [
              23.287778,
              62.349444
            ],
            [
              23.05,
              62.320556
            ],
            [
              22.265,
              62.760278
            ],
            [
              22.388056,
              63.030833
            ],
            [
              22.7325,
              63.072778
            ]
          ]
        ]
      }
    },
    {
      "type": "Feature",
      "properties": {
        "name": "EFSI FIZ Lower 2027"
      },
      "geometry": {
        "type": "Polygon",
        "coordinates": [
          [
            [
              22.754167,
              62.909167
            ],
            [
              23.299722,
              62.646944
            ],
            [
              22.908611,
              62.475278
            ],
            [
              22.362778,
              62.736111
            ],
            [
              22.754167,
              62.909167
            ]
          ]
        ]
      }
    },
    {
      "type": "Feature",
      "properties": {
        "name": "EFTP TMA Upper 2027"
      },
      "geometry": {
        "type": "Polygon",
        "coordinates": [
          [
            [
              24.588611,
              61.182778
            ],
            [
              23.247222,
              60.871111
            ],
            [
              22.655556,
              61.005278
            ],
            [
              22.625278,
              61.169444
            ],
            [
              22.673056,
              61.488611
            ],
            [
              22.790833,
              61.503333
            ],
            [
              23.943333,
              61.765833
            ],
            [
              24.597778,
              61.6
            ],
            [
              24.588611,
              61.182778
            ]
          ]
        ]
      }
    },
    {
      "type": "Feature",
      "properties": {
        "name": "EFTP TMA Lower 2027"
      },
      "geometry": {
        "type": "Polygon",
        "coordinates": [
          [
            [
              23.752222,
              61.723333
            ],
            [
              23.943333,
              61.765833
            ],
            [
              24.131944,
              61.718611
            ],
            [
              24.597778,
              61.6
            ],
            [
              24.59,
              61.245278
            ],
            [
              23.917222,
              61.096667
            ],
            [
              23.369167,
              61.061667
            ],
            [
              23.141389,
              61.111111
            ],
            [
              22.891111,
              61.357222
            ],
            [
              22.901944,
              61.529167
            ],
            [
              23.752222,
              61.723333
            ]
          ]
        ]
      }
    },
    {
      "type": "Feature",
      "properties": {
        "name": "EFTP CTR 2027"
      },
      "geometry": {
        "type": "Polygon",
        "coordinates": [
          [
            [
              23.857778,
              61.609722
            ],
            [
              24.08,
              61.384167
            ],
            [
              23.351111,
              61.2175
            ],
            [
              23.124722,
              61.441667
            ],
            [
              23.857778,
              61.609722
            ]
          ]
        ]
      }
    },
    {
      "type": "Feature",
      "properties": {
        "name": "EFTU TMA Upper 2027"
      },
      "geometry": {
        "type": "Polygon",
        "coordinates": [
          [
            [
              23.075833,
              60.1275
            ],
            [
              21.544167,
              60.058889
            ],
            [
              21.093056,
              60.289444
            ],
            [
              21.044444,
              60.510556
            ],
            [
              21.521944,
              60.813611
            ],
            [
              22.895556,
              60.874167
            ],
            [
              23.378333,
              60.614722
            ],
            [
              23.41,
              60.386944
            ],
            [
              23.075833,
              60.1275
            ]
          ]
        ]
      }
    },
    {
      "type": "Feature",
      "properties": {
        "name": "EFTU TMA Lower 2027"
      },
      "geometry": {
        "type": "Polygon",
        "coordinates": [
          [
            [
              22.977778,
              60.210556
            ],
            [
              21.669167,
              60.152222
            ],
            [
              21.334444,
              60.374167
            ],
            [
              21.294722,
              60.562778
            ],
            [
              21.450278,
              60.726667
            ],
            [
              22.985556,
              60.794167
            ],
            [
              23.198889,
              60.647222
            ],
            [
              23.227778,
              60.458611
            ],
            [
              22.977778,
              60.210556
            ]
          ]
        ]
      }
    },
    {
      "type": "Feature",
      "properties": {
        "name": "EFTU CTR 2027"
      },
      "geometry": {
        "type": "Polygon",
        "coordinates": [
          [
            [
              22.653889,
              60.655833
            ],
            [
              22.695833,
              60.407222
            ],
            [
              21.895278,
              60.371944
            ],
            [
              21.846667,
              60.619722
            ],
            [
              22.653889,
              60.655833
            ]
          ]
        ]
      }
    },
    {
      "type": "Feature",
      "properties": {
        "name": "EFUT TMA 2027"
      },
      "geometry": {
        "type": "Polygon",
        "coordinates": [
          [
            [
              27.426111,
              61.083333
            ],
            [
              27.72,
              60.824444
            ],
            [
              27.753611,
              60.724444
            ],
            [
              26.430556,
              60.587222
            ],
            [
              26.125833,
              60.724444
            ],
            [
              26.050833,
              60.886944
            ],
            [
              26.090278,
              60.933889
            ],
            [
              26.4975,
              60.981111
            ],
            [
              27.236111,
              61.063056
            ],
            [
              27.426111,
              61.083333
            ]
          ]
        ]
      }
    },
    {
      "type": "Feature",
      "properties": {
        "name": "EFUT CTR 2027"
      },
      "geometry": {
        "type": "Polygon",
        "coordinates": [
          [
            [
              27.236111,
              61.063056
            ],
            [
              27.3425,
              60.81
            ],
            [
              26.608056,
              60.734444
            ],
            [
              26.4975,
              60.981111
            ],
            [
              27.236111,
              61.063056
            ]
          ]
        ]
      }
    },
    {
      "type": "Feature",
      "properties": {
        "name": "EFVA TMA Upper 2027"
      },
      "geometry": {
        "type": "Polygon",
        "coordinates": [
          [
            [
              22.123611,
              63.424167
            ],
            [
              22.388056,
              63.030833
            ],
            [
              22.265,
              62.760278
            ],
            [
              22.591667,
              62.579444
            ],
            [
              22.492222,
              62.518333
            ],
            [
              21.790556,
              62.422222
            ],
            [
              21.116667,
              62.535
            ],
            [
              20.739167,
              63.106944
            ],
            [
              21.002778,
              63.27
            ],
            [
              21.299722,
              63.451111
            ],
            [
              21.589722,
              63.563333
            ],
            [
              22.123611,
              63.424167
            ]
          ]
        ]
      }
    },
    {
      "type": "Feature",
      "properties": {
        "name": "EFVA TMA Lower 2027"
      },
      "geometry": {
        "type": "Polygon",
        "coordinates": [
          [
            [
              21.589722,
              63.563333
            ],
            [
              21.879167,
              63.485
            ],
            [
              22.123611,
              63.424167
            ],
            [
              22.331389,
              63.116111
            ],
            [
              22.388056,
              63.030833
            ],
            [
              22.265,
              62.760278
            ],
            [
              22.215833,
              62.650833
            ],
            [
              21.865278,
              62.602778
            ],
            [
              21.398056,
              62.676111
            ],
            [
              20.983056,
              62.941111
            ],
            [
              21.002778,
              63.27
            ],
            [
              21.299722,
              63.451111
            ],
            [
              21.589722,
              63.563333
            ]
          ]
        ]
      }
    },
    {
      "type": "Feature",
      "properties": {
        "name": "EFVA CTR 2027"
      },
      "geometry": {
        "type": "Polygon",
        "coordinates": [
          [
            [
              21.901111,
              63.273611
            ],
            [
              22.145833,
              62.901389
            ],
            [
              21.623889,
              62.829722
            ],
            [
              21.373056,
              63.201111
            ],
            [
              21.901111,
              63.273611
            ]
          ]
        ]
      }
    }
  ]
}