{
"type": "FeatureCollection",
"name": "ACC2027",
"crs": { "type": "name", "properties": { "name": "urn:ogc:def:crs:OGC:1.3:CRS84" } },
"features": [
{ "type": "Feature", "properties": { "name": "A", "code": "sector1", "call": "Helsinki control", "freq": "127.425", "lng": 25.230512237497852, "lat": 60.279273575500767 }, "geometry": { "type": "Polygon", "coordinates": [ [ [ 24.78222222222222, 60.820277777777783 ], [ 25.485833333333336, 60.830833333333338 ], [ 25.634444444444444, 60.773333333333333 ], [ 25.841666666666665, 60.69222222222222 ], [ 26.133333333333333, 60.452222222222225 ], [ 26.515277777777779, 60.337777777777781 ], [ 27.628055555555555, 60.331666666666671 ], [ 27.456666666666667, 60.223333333333336 ], [ 27.293055555555558, 60.200277777777778 ], [ 26.55, 60.133333333333333 ], [ 25.866666666666667, 59.883333333333333 ], [ 25.333333333333332, 59.908333333333331 ], [ 24.85, 59.883333333333333 ], [ 23.991944444444446, 59.7 ], [ 23.824444444444445, 59.913055555555552 ], [ 23.870555555555555, 60.026944444444446 ], [ 23.915277777777778, 60.136944444444445 ], [ 24.003333333333334, 60.351111111111109 ], [ 24.043611111111112, 60.447777777777773 ], [ 24.485555555555557, 60.7425 ], [ 24.665, 60.789722222222217 ], [ 24.78222222222222, 60.820277777777783 ] ] ] } },
{ "type": "Feature", "properties": { "name": "B", "code": "sector2", "call": "Helsinki control", "freq": "125.225", "lng": 22.50648106405998, "lat": 59.497004712245428 }, "geometry": { "type": "Polygon", "coordinates": [ [ [ 23.870555555555555, 60.026944444444446 ], [ 23.824444444444445, 59.913055555555552 ], [ 23.991666666666667, 59.700277777777778 ], [ 21.0, 59.0 ], [ 20.741666666666667, 59.146111111111111 ], [ 23.870555555555555, 60.026944444444446 ] ] ] } },
{ "type": "Feature", "properties": { "name": "C", "code": "sector3", "call": "Helsinki control", "freq": "132.675", "lng": 21.683596816881778, "lat": 59.614452917781541 }, "geometry": { "type": "Polygon", "coordinates": [ [ [ 23.915277777777778, 60.136944444444445 ], [ 23.870555555555555, 60.026944444444446 ], [ 20.741666666666667, 59.146111111111111 ], [ 19.998611111111114, 59.554444444444442 ], [ 22.603611111111114, 59.897222222222219 ], [ 23.915277777777778, 60.136944444444445 ] ] ] } },
{ "type": "Feature", "properties": { "name": "D", "code": "sector4", "call": "Helsinki control", "freq": "121.300", "lng": 21.834166666666668, "lat": 59.952777777777776 }, "geometry": { "type": "Polygon", "coordinates": [ [ [ 24.003333333333334, 60.351111111111109 ], [ 23.915277777777778, 60.136944444444445 ], [ 22.603611111111114, 59.897222222222219 ], [ 19.998611111111114, 59.554444444444442 ], [ 19.983055555555556, 59.562777777777775 ], [ 19.665, 59.789444444444442 ], [ 19.934166666666666, 59.884166666666665 ], [ 21.899722222222223, 60.111944444444447 ], [ 22.9575, 60.231666666666669 ], [ 24.003333333333334, 60.351111111111109 ] ] ] } },
{ "type": "Feature", "properties": { "name": "E", "code": "sector5", "call": "Helsinki control", "freq": "134.575", "lng": 23.055387017126968, "lat": 60.641957964376822 }, "geometry": { "type": "Polygon", "coordinates": [ [ [ 24.588611, 61.182778 ], [ 24.665, 60.789722222222217 ], [ 24.485555555555557, 60.7425 ], [ 24.043611111111112, 60.447777777777773 ], [ 24.003333333333334, 60.351111111111109 ], [ 22.9575, 60.231666666666669 ], [ 21.899722222222223, 60.111944444444447 ], [ 21.385833333333334, 60.388611111111111 ], [ 21.350833333333334, 60.554444444444442 ], [ 21.585833333333333, 60.733055555555559 ], [ 22.133611111111112, 60.774166666666666 ], [ 22.285277777777779, 60.773888888888891 ], [ 22.655556, 61.005278 ], [ 23.247222, 60.871111 ], [ 24.588611, 61.182778 ] ] ] } },
{ "type": "Feature", "properties": { "name": "F", "code": "sector6", "call": "Helsinki control", "freq": "132.725", "lng": 20.288333333333334, "lat": 60.99111111111111 }, "geometry": { "type": "Polygon", "coordinates": [ [ [ 19.726666666666667, 62.192777777777778 ], [ 21.173333333333336, 61.776388888888889 ], [ 21.577777777777779, 61.844722222222224 ], [ 22.504166666666666, 61.525 ], [ 22.624444444444446, 61.4825 ], [ 22.673055555555557, 61.488611111111112 ], [ 22.625277777777779, 61.169444444444444 ], [ 22.655556, 61.005278 ], [ 22.285555555555558, 60.773888888888891 ], [ 22.133611111111112, 60.774166666666666 ], [ 21.585833333333333, 60.733055555555559 ], [ 21.350833333333334, 60.554444444444442 ], [ 21.385833333333334, 60.388611111111111 ], [ 21.899722222222223, 60.111944444444447 ], [ 20.3125, 59.93055555555555 ], [ 19.934166666666666, 59.884166666666665 ], [ 19.665, 59.789444444444442 ], [ 19.269166666666667, 60.06666666666667 ], [ 19.086666666666666, 60.191666666666663 ], [ 19.132222222222222, 60.30083333333333 ], [ 19.5, 61.666666666666664 ], [ 19.726666666666667, 62.192777777777778 ] ] ] } },
{ "type": "Feature", "properties": { "name": "G", "code": "sector7", "call": "Helsinki control", "freq": "127.100", "lng": 22.290809436378975, "lat": 62.39369076774431 }, "geometry": { "type": "Polygon", "coordinates": [ [ [ 21.691944444444445, 63.766666666666666 ], [ 22.419166666666669, 63.446944444444441 ], [ 22.777777777777779, 63.3 ], [ 23.145833, 63.269444 ], [ 24.080278, 63.001667 ], [ 23.665833, 62.628056 ], [ 23.551111, 62.464722 ], [ 24.109444, 62.110833 ], [ 24.041111, 62.006667 ], [ 24.049444444444447, 61.948611111111106 ], [ 24.131944444444446, 61.718611111111116 ], [ 24.597777777777775, 61.6 ], [ 24.588611, 61.182778 ], [ 23.247222, 60.871111 ], [ 22.655556, 61.005278 ], [ 22.625277777777779, 61.169444444444444 ], [ 22.673055555555557, 61.488611111111112 ], [ 22.624444444444446, 61.4825 ], [ 22.504166666666666, 61.525 ], [ 21.577777777777779, 61.844722222222224 ], [ 21.173333333333336, 61.776388888888889 ], [ 19.726666666666667, 62.192777777777778 ], [ 20.166666666666668, 63.166666666666664 ], [ 20.666666666666668, 63.475 ], [ 21.433055555555558, 63.605555555555554 ], [ 21.5, 63.616666666666667 ], [ 21.691944444444445, 63.766666666666666 ] ] ] } },
{ "type": "Feature", "properties": { "name": "H", "code": "sector8", "call": "Helsinki control", "freq": "124.200", "lng": 26.527566945796082, "lat": 65.399166666666673 }, "geometry": { "type": "Polygon", "coordinates": [ [ [ 29.03777777777778, 66.953888888888898 ], [ 29.065843925386901, 66.8514292673851 ], [ 29.129511967726799, 66.789170533198899 ], [ 29.361141340147199, 66.638859757184505 ], [ 29.572929817382398, 66.432853204320807 ], [ 29.696996646751401, 66.271943305905907 ], [ 29.9232900056247, 66.127143513602803 ], [ 30.075576911891101, 65.881044403506195 ], [ 30.134074128332799, 65.699724136002402 ], [ 30.138467224925499, 65.668678919290898 ], [ 30.017112630396799, 65.696479185385996 ], [ 29.721869597129299, 65.637084839899401 ], [ 29.863904476392801, 65.560444127760405 ], [ 29.754713953507999, 65.497365689371904 ], [ 29.746581025047298, 65.347401641972198 ], [ 29.601786874667201, 65.259932405487604 ], [ 29.6340017685677, 65.231585117570205 ], [ 29.8856599339199, 65.206296073911702 ], [ 29.8193338136238, 65.144278888030598 ], [ 29.896859330505201, 65.105140284574901 ], [ 29.626944444444444, 65.060555555555553 ], [ 25.40583333333333, 63.834166666666668 ], [ 23.890277777777776, 64.338055555555556 ], [ 22.916666666666668, 64.683333333333337 ], [ 24.14, 65.53 ], [ 24.159751002143999, 65.612810020423794 ], [ 24.172559467177098, 65.699823770652003 ], [ 24.137796569122099, 65.779389482085804 ], [ 24.1531711620704, 65.862578620943196 ], [ 24.037358508127799, 65.992281349512396 ], [ 23.945188065908098, 66.085852999643095 ], [ 23.941667, 66.1125 ], [ 24.280556, 66.156944 ], [ 24.514444, 66.198889 ], [ 24.643889, 66.191944 ], [ 24.701389, 66.176389 ], [ 24.688889, 66.458889 ], [ 24.778333333333332, 66.586388888888891 ], [ 25.14638888888889, 66.773055555555558 ], [ 25.711666666666666, 66.964166666666671 ], [ 26.325, 66.955 ], [ 26.654722222222222, 66.854722222222222 ], [ 26.802222222222223, 66.661666666666676 ], [ 29.03777777777778, 66.953888888888898 ] ] ] } },
{ "type": "Feature", "properties": { "name": "J", "code": "sector9", "call": "Helsinki control", "freq": "126.100", "lng": 27.147339770957981, "lat": 68.772353997726725 }, "geometry": { "type": "Polygon", "coordinates": [ [ [ 20.548611111111114, 69.06 ], [ 20.717322326190502, 69.119790492755598 ], [ 21.057543912371798, 69.036289667901897 ], [ 21.108675124035798, 69.103929122957197 ], [ 20.986720230841701, 69.193276786761302 ], [ 21.0081980650981, 69.2216503332088 ], [ 21.094022122121899, 69.259547144314595 ], [ 21.278820781632302, 69.311884015364598 ], [ 21.627086324442502, 69.276588302506397 ], [ 22.175762395958898, 68.956324300806301 ], [ 22.340780648100601, 68.827224894700294 ], [ 22.374521897077098, 68.716666565540194 ], [ 22.5353893252795, 68.744511966878704 ], [ 22.8008240391557, 68.687548014931807 ], [ 23.045952044668098, 68.689343317721594 ], [ 23.1675822870621, 68.628518925886794 ], [ 23.440635657847402, 68.692163491677405 ], [ 23.673520205748002, 68.705521373013795 ], [ 23.775391388928099, 68.8188511193203 ], [ 23.8714607673088, 68.836519184557304 ], [ 23.991400878630198, 68.820981304567098 ], [ 24.075591585759, 68.779966834572093 ], [ 24.152962305533499, 68.753591043035399 ], [ 24.250964782758199, 68.727132069087702 ], [ 24.587892245056601, 68.682631603849202 ], [ 24.783424581786502, 68.636234615097607 ], [ 24.903165781750399, 68.5545918308583 ], [ 24.916923979307199, 68.605246622718596 ], [ 25.116388980916, 68.639588330566596 ], [ 25.142203526968501, 68.787230348426604 ], [ 25.243288425553999, 68.841423533741406 ], [ 25.4748027523225, 68.904516799283002 ], [ 25.588139488816299, 68.883259690616995 ], [ 25.653478069975201, 68.907022992711205 ], [ 25.777265469224201, 69.0179098314686 ], [ 25.738374212966001, 69.147580100418296 ], [ 25.702039898176398, 69.253662301395295 ], [ 25.7584057939074, 69.331865862298599 ], [ 25.846647633796302, 69.393835112703101 ], [ 25.820845596097101, 69.434683200374806 ], [ 25.850423569777199, 69.497199074351798 ], [ 25.858208547237901, 69.5417626919496 ], [ 25.976576539200401, 69.610242883616607 ], [ 25.891490730664501, 69.665502874228906 ], [ 26.015422473078601, 69.719869626115198 ], [ 26.1476897877975, 69.749044991271106 ], [ 26.258646381960901, 69.809186348404694 ], [ 26.385022383611599, 69.854869162599101 ], [ 26.467707347856201, 69.940416210840993 ], [ 26.848672306217601, 69.960195535702297 ], [ 27.041813209736301, 69.910821818422605 ], [ 27.300665426448699, 69.954732613408098 ], [ 27.288789307435, 69.984517750991998 ], [ 27.4092810315971, 70.012318674797399 ], [ 27.525986791730901, 70.023463795803806 ], [ 27.6124553923087, 70.074560251848894 ], [ 27.7601103040558, 70.071696036415702 ], [ 27.959381414310901, 70.092099729696102 ], [ 27.984285246603999, 70.013970664023802 ], [ 28.160712769567599, 69.920993683482294 ], [ 28.345268047270899, 69.880832119964495 ], [ 28.330476117568502, 69.849192538252495 ], [ 29.1339034514315, 69.695340541835606 ], [ 29.3364967864817, 69.478322032710096 ], [ 29.189109385573001, 69.382605909361104 ], [ 28.831540659544299, 69.224360645035603 ], [ 28.805429804189501, 69.111155548543707 ], [ 28.929166666666667, 69.051944444444445 ], [ 28.4157879993063, 68.915450772459906 ], [ 28.468014934827401, 68.885435096532902 ], [ 28.800785891752501, 68.869284696436793 ], [ 28.7064081747953, 68.732237670850694 ], [ 28.433931900851501, 68.539671669516906 ], [ 28.478982094947, 68.466190669400902 ], [ 28.646152599228198, 68.196303552399499 ], [ 29.327089313933001, 68.074541483497896 ], [ 29.659405083905099, 67.802959245185804 ], [ 30.0170436211245, 67.673553259513 ], [ 29.930224503577101, 67.522524238588801 ], [ 29.6981604953192, 67.387738335970596 ], [ 29.643945207387201, 67.3357543016877 ], [ 29.5225548279479, 67.309904032858199 ], [ 29.4911381806536, 67.259163926689695 ], [ 29.184699039714602, 67.065290957101794 ], [ 29.03777777777778, 66.953888888888898 ], [ 26.802222222222223, 66.661666666666676 ], [ 26.654722222222222, 66.854722222222222 ], [ 26.325, 66.955 ], [ 25.711666666666666, 66.964166666666671 ], [ 25.14638888888889, 66.773055555555558 ], [ 24.778333333333332, 66.586388888888891 ], [ 24.688889, 66.458889 ], [ 24.701389, 66.176389 ], [ 24.643889, 66.191944 ], [ 24.514444, 66.198889 ], [ 24.280556, 66.156944 ], [ 23.941667, 66.1125 ], [ 23.919080192442781, 66.161756005973047 ], [ 23.826436237661511, 66.172258086768863 ], [ 23.730019452142542, 66.200862606103314 ], [ 23.649113192989674, 66.304177784606338 ], [ 23.683907076459562, 66.387264313455532 ], [ 23.641148328098968, 66.42920741826218 ], [ 23.652047616896763, 66.457521150321654 ], [ 23.889166666666664, 66.572777777777773 ], [ 23.8989576765259, 66.715111143874907 ], [ 23.879574978735299, 66.763243572497899 ], [ 23.995348403587201, 66.821200098584598 ], [ 23.7843836068018, 66.996929396032996 ], [ 23.554475400467702, 67.167465799221503 ], [ 23.595865390086999, 67.207818289415002 ], [ 23.546260358293001, 67.225187932174904 ], [ 23.575282493256999, 67.268364091255194 ], [ 23.7297366191289, 67.288339433988 ], [ 23.7558288184239, 67.332244041955803 ], [ 23.7307020685931, 67.386428427733506 ], [ 23.764581664683199, 67.428214315329299 ], [ 23.540489905675201, 67.461044894776506 ], [ 23.494855231884401, 67.446614200396894 ], [ 23.393710760077401, 67.485092154025907 ], [ 23.554216879690099, 67.6175838909503 ], [ 23.487098731738602, 67.698401466587697 ], [ 23.4776191884126, 67.842577837179107 ], [ 23.664612079691501, 67.941453913364498 ], [ 23.5500487685173, 67.995158462274802 ], [ 23.387920214453398, 68.048134852465907 ], [ 23.286698218135101, 68.154273008971998 ], [ 23.1523892811278, 68.136729382842105 ], [ 23.144072110671001, 68.246298931470605 ], [ 23.059359781588199, 68.301637645798905 ], [ 22.899709684846901, 68.341389004971006 ], [ 22.8264362947994, 68.387457848081098 ], [ 22.717987917565701, 68.396683291463106 ], [ 22.6368345363258, 68.423990997863797 ], [ 22.5501384047218, 68.435916354208402 ], [ 22.432160422838699, 68.464912772926397 ], [ 22.341759586624601, 68.444873936108607 ], [ 22.3468346693919, 68.482228407882701 ], [ 22.043247450160401, 68.479665831757998 ], [ 21.987439174776501, 68.531631916539595 ], [ 21.890321932487399, 68.583890606633602 ], [ 21.7048399962544, 68.594751727306004 ], [ 21.705342828171101, 68.626163437954801 ], [ 21.623065944987999, 68.660916145361895 ], [ 21.420314020244302, 68.695876989241398 ], [ 21.383858808233899, 68.764852341115201 ], [ 21.2990835422031, 68.7624026022946 ], [ 21.2084765352059, 68.8222375435045 ], [ 20.999059031286698, 68.896150454779701 ], [ 20.904618896613901, 68.892988635543801 ], [ 20.8447994810384, 68.935882086902197 ], [ 20.925223078297499, 68.956289477552104 ], [ 20.776311473738001, 69.032201133203401 ], [ 20.548611111111114, 69.06 ] ] ] } },
{ "type": "Feature", "properties": { "name": "K", "code": "sector10", "call": "Helsinki control", "freq": "123.775", "lng": 25.015972222222221, "lat": 61.199305555555554 }, "geometry": { "type": "Polygon", "coordinates": [ [ [ 24.597777777777775, 61.6 ], [ 25.505, 61.625277777777775 ], [ 26.368333, 61.442778 ], [ 25.634444444444444, 60.773333333333333 ], [ 25.485833333333336, 60.830833333333338 ], [ 24.78222222222222, 60.820277777777783 ], [ 24.665, 60.789722222222217 ], [ 24.588611, 61.182778 ], [ 24.597777777777775, 61.6 ] ] ] } },
{ "type": "Feature", "properties": { "name": "L", "code": "sector11", "call": "Helsinki control", "freq": "130.975", "lng": 27.344299619505751, "lat": 61.090330627326907 }, "geometry": { "type": "Polygon", "coordinates": [ [ [ 29.444166666666668, 61.42444444444444 ], [ 29.2448290869186, 61.270689942893704 ], [ 29.084264139190601, 61.210434721121999 ], [ 29.021965868535499, 61.1884893956044 ], [ 28.953712511891101, 61.1506734759461 ], [ 28.8506338361851, 61.129653097595998 ], [ 28.776648539001101, 61.0792549641005 ], [ 28.6550013330735, 60.949499342255102 ], [ 28.5246048315027, 60.957104565909603 ], [ 27.9912825272202, 60.668984892098699 ], [ 27.8887416813714, 60.612942346930403 ], [ 27.7744098423473, 60.533573252228798 ], [ 27.747949808563501, 60.451170894029097 ], [ 27.686920372319701, 60.433572369717602 ], [ 27.72583333333333, 60.391666666666666 ], [ 27.628055555555555, 60.331666666666671 ], [ 26.515277777777779, 60.337777777777781 ], [ 26.133333333333333, 60.452222222222225 ], [ 25.841666666666665, 60.69222222222222 ], [ 25.634444444444444, 60.773333333333333 ], [ 26.368333, 61.442778 ], [ 29.444166666666668, 61.42444444444444 ] ] ] } },
{ "type": "Feature", "properties": { "name": "M", "code": "sector12", "call": "Helsinki control", "freq": "132.325", "lng": 25.448194444444447, "lat": 62.182222222222222 }, "geometry": { "type": "Polygon", "coordinates": [ [ [ 24.041111, 62.006667 ], [ 24.109444, 62.110833 ], [ 23.551111, 62.464722 ], [ 23.665833, 62.628056 ], [ 24.080278, 63.001667 ], [ 24.801111, 63.265278 ], [ 25.660278, 63.322778 ], [ 27.044722222222223, 63.1075 ], [ 27.16, 62.533056 ], [ 27.520556, 62.471667 ], [ 26.846944444444443, 61.914722222222224 ], [ 26.494444, 61.706111 ], [ 26.495, 61.555 ], [ 26.368333, 61.442778 ], [ 25.505, 61.625277777777775 ], [ 24.597777777777775, 61.6 ], [ 24.131944444444446, 61.718611111111116 ], [ 24.049444444444447, 61.948611111111106 ], [ 24.041111, 62.006667 ] ] ] } },
{ "type": "Feature", "properties": { "name": "N", "code": "sector13", "call": "Helsinki control", "freq": "135.525", "lng": 29.494444444444458, "lat": 62.590833333333336 }, "geometry": { "type": "Polygon", "coordinates": [ [ [ 26.846944444444443, 61.914722222222224 ], [ 27.520556, 62.471667 ], [ 27.956111, 62.396111 ], [ 28.566667, 62.4125 ], [ 28.825278, 62.961389 ], [ 29.170278, 62.981389 ], [ 30.051667, 62.995556 ], [ 31.120556, 63.27 ], [ 31.238247194904901, 63.195132892041102 ], [ 31.2721272015566, 63.107627765400203 ], [ 31.4629865988883, 63.024245724113001 ], [ 31.586705850698401, 62.908706961774499 ], [ 31.439208818199301, 62.784882906252697 ], [ 31.373157157536099, 62.649721705669698 ], [ 31.226627298247799, 62.503556348137899 ], [ 31.1695193437691, 62.467799297790997 ], [ 31.093521847716801, 62.416611668205697 ], [ 30.966791043767799, 62.337970993853098 ], [ 30.9196436804062, 62.309060783263902 ], [ 30.789182002558402, 62.250802842682397 ], [ 30.669461162169299, 62.1939151674908 ], [ 30.483086874011001, 62.063843942730102 ], [ 30.143957436061701, 61.852242214781597 ], [ 29.645234577290001, 61.520154944777602 ], [ 29.532137778883602, 61.490905359811798 ], [ 29.444166666666668, 61.42444444444444 ], [ 26.368333, 61.442778 ], [ 26.495, 61.555 ], [ 26.494444, 61.706111 ], [ 26.846944444444443, 61.914722222222224 ] ] ] } },
{ "type": "Feature", "properties": { "name": "V", "code": "sector14", "call": "Helsinki control", "freq": "126.300", "lng": 22.933472222222221, "lat": 63.819027777777777 }, "geometry": { "type": "Polygon", "coordinates": [ [ [ 22.916666666666668, 64.683333333333337 ], [ 23.890277777777776, 64.338055555555556 ], [ 25.40583333333333, 63.834166666666668 ], [ 29.626944444444444, 65.060555555555553 ], [ 29.610994563745098, 64.927311193495399 ], [ 29.661862757380501, 64.852586048676599 ], [ 29.739628423214199, 64.789783837082794 ], [ 30.045784676868202, 64.795613791861996 ], [ 30.100906983438701, 64.761223454086903 ], [ 30.041396831307502, 64.741193001794898 ], [ 30.1301111661279, 64.634728188040796 ], [ 29.989771757961201, 64.587144624234199 ], [ 30.028028244198399, 64.489696536131305 ], [ 30.083057096990999, 64.376714679526899 ], [ 30.2777566525682, 64.331175684078602 ], [ 30.388276386151201, 64.269069075848094 ], [ 30.482440762726998, 64.262326298477802 ], [ 30.488668033649301, 64.180166096430895 ], [ 30.5483286358326, 64.136703481411402 ], [ 30.553557623576999, 64.101686421874106 ], [ 30.498599456907701, 64.020687978922197 ], [ 30.331780422377999, 63.912752528139301 ], [ 30.260414174560701, 63.8220093328828 ], [ 29.971944444444443, 63.757222222222225 ], [ 30.386928758960238, 63.545243867028923 ], [ 30.493422549654689, 63.459720236705337 ], [ 30.781774967535032, 63.405496057909609 ], [ 31.120556, 63.27 ], [ 30.051667, 62.995556 ], [ 29.170278, 62.981389 ], [ 28.825278, 62.961389 ], [ 28.566667, 62.4125 ], [ 27.956111, 62.396111 ], [ 27.520556, 62.471667 ], [ 27.16, 62.533056 ], [ 27.044722222222223, 63.1075 ], [ 25.660278, 63.322778 ], [ 24.801111, 63.265278 ], [ 24.080278, 63.001667 ], [ 23.145833, 63.269444 ], [ 22.777777777777779, 63.3 ], [ 22.419166666666669, 63.446944444444441 ], [ 21.691944444444445, 63.766666666666666 ], [ 22.916666666666668, 64.683333333333337 ] ] ] } }
]
}
